Address,Borough,Items_Accepted,Latitude,Longitude,Vendor_Name
137-57 Farmers Blvd,Queens,"Clothing, Shoes",40.672527,-73.763826,Usagain LLC
476 Seneca Ave,Queens,"Clothing, Shoes",40.705748,-73.91285,Usagain LLC
344 Avenue X,Brooklyn,"Clothing, Shoes, Coats, Towels",40.590297,-73.970422,Carecycle Inc
2008 Webster Ave,Bronx,"Clothing, Shoes",40.850287,-73.899009,Usagain LLC
500 5 Ave,Manhattan,Contact store for details,40.7225111,-73.999577,Zara
10 Columbus Circle,Manhattan,Contact store for details,40.7682882,-73.982832,J. Crew
10 W 13th St,Manhattan,Contact store for details,40.735526,-73.9951,beacon's closet
124 Henry St,Brooklyn,"Clothing, Shoes, Coats",40.697034,-73.993706,First Presbyterian Church
1859 Richmond Ave,Staten Island,"Clothing, Shoes, Accessories, Bedding And Linens, Towels , Coats",40.602432,-74.162507,American Recycling Resources
1260 Franklin Ave,Bronx,"Clothing, Shoes",40.830895,-73.902386,Usagain LLC
424 Dean St,Brooklyn,"Clothing, Shoes, Coats",40.682123,-73.977161,Cuyler Warren United Methodist Church
2064 Mill Ave,Brooklyn,"Clothing, Shoes, Coats, Towels",40.615402,-73.914351,Carecycle Inc
144-31 Farmers Blvd,Queens,"Clothing, Shoes, Accessories, Bedding and linens, Towels, Coats",40.667542,-73.766448,Helpsy
2845 Briggs Ave,Bronx,"Clothing, Shoes, Coats, Accessories",40.869353,-73.888989,Our Lady of Refuge Thrift Shop
19 Fort Pl,Staten Island,"Clothing, Shoes, Accessories, Bedding and linens, Towels, Coats",40.64214,-74.078983,Helpsy
2540 Linden Blvd,Brooklyn,"Clothing, Shoes",40.66685,-73.870161,Planet Aid
32-09 21 St,Queens,"Clothing, Shoes",40.764843,-73.931744,Usagain LLC
2494 Frederick Douglass Blvd,Manhattan,"Clothing, Shoes, Coats, Accessories",40.815298,-73.947004,Neighborhood Women's Collective
40-13 Astoria Blvd,Queens,"Clothing, Shoes, Accessories, Bedding and linens, Towels, Coats",40.769509,-73.909832,Helpsy
66 5 Ave,Brooklyn,"Clothing, Shoes, Linens, Accessories",40.681119,-73.977516,Life Boutique Thrift
195-05 69 Ave,Queens,"Clothing, Shoes, Coats, Accessories, Bedding, Towels, Other",40.737581,-73.778058,American Recycling Technologies Inc.
268 W 96 St,Manhattan,"Clothing, Shoes, Accessories, Coats, Bedding And Linens, Rugs",40.794824,-73.972741,The Salvation Army Of Greater New York
1811 Pitkin Ave,Brooklyn,"Clothing, Shoes",40.670619,-73.906232,Usagain LLC
409 E 95th St,Brooklyn,"Clothing, Shoes, Coats",40.65729,-73.918304,The Hope Center Development Corporation
85-42 Woodhaven Blvd,Queens,"Clothing, Shoes, Accessories, Bedding and linens, Towels, Coats",40.695524,-73.853295,Helpsy
126 5th Ave,Manhattan,"Clothing, Shoes, Purses, Gloves, Scarves, Hats, belts, Towels, Curtains, Bedding and Linens. Clean Rags and Torn Clothing",40.7385,-73.9922,Athleta
23 - 25 Fulton Street,New York,"Clothing & shoes. Bring in a minimum of 5 items & receive 15% off your next purchase. All brands in clean, dry condition accepted. Visit or call store for more details. I:CO partner - https://www.ico-spirit.com/en/",40.7072208,-74.003655,GUESS
21 Manhattan Ave,Brooklyn,"Clothing, Shoes, Accessories, Bedding and linens, Towels, Coats",40.703146,-73.945075,Helpsy
3680 E Tremont Ave,Bronx,"Clothing, Shoes",40.827049,-73.823067,Usagain LLC
366 Watchogue Rd,Staten Island,"Clothing, Shoes, Coats",40.616308,-74.141521,H&M Leasing Corp
1380 Pennsylvania Ave,Brooklyn,"Clothing, Shoes",40.646957,-73.882694,Usagain LLC
35-15 Greenpoint Ave,Queens,"Clothing, Shoes",40.737534,-73.930585,Usagain LLC
3811 Surf Ave,Brooklyn,"Clothing, Shoes, Coats",40.574878,-74.005545,Housing for Homeless Seniors (Met Council on Jewish Poverty)
546 Broadway,Manhattan,UNIQLO Clothing,40.723512,-73.998214,UNIQLO
118-1 Rockaway Blvd,Queens,"Clothing, Shoes, Accessories, Bedding and linens, Towels, Coats",40.676568,-73.82006,Helpsy
928 Mother Gaston Blvd,Brooklyn,"Clothing, Shoes",40.65554,-73.903672,Usagain LLC
929 Marcy Ave,Brooklyn,"Clothing, Shoes, Coats",40.680965,-73.946195,Agape Social Service Beulah
601 EAST FORDHAM RD,Bronx,"Clothing, Shoes, Accessories, Bedding and linens, Towels, Coats",40.858599,-73.884888,USAGAIN LLC
48 Wall St,Manhattan,"Clothing, Shoes, Coats",40.706561,-74.00906,Court Appointed Special Advocates
219 Beach 28 St,Queens,"Clothing, Shoes, Coats",40.595513,-73.761449,Justice Organization
951 E 233 St,Bronx,"Clothing, Shoes, Accessories, Bedding and linens, Towels, Coats",40.891291,-73.849878,Usagain LLC
1602 Bronxdale Ave,Bronx,"Clothing, Shoes",40.843823,-73.856907,Usagain LLC
135-11 Hillside Ave,Queens,"Clothing, Shoes, Accessories, Bedding and linens, Towels, Coats",40.704146,-73.818936,Helpsy
149-28 14 Ave,Queens,"Clothing, Shoes, Coats, Towels",40.788349,-73.815009,Carecycle Inc
191 E 3 St,Manhattan,Contact store for details,40.723076,-73.98342,Jane's Exchange
64-01 108 St,Queens,"Clothing, Shoes, Accessories, Bedding and linens, Towels, Coats",40.732916,-73.849313,Helpsy
1240 Morrison Ave,Bronx,"Clothing, Shoes",40.830369,-73.87448,Usagain LLC
252 E 153rd St,Bronx,"Clothing, Shoes, Coats",40.820423,-73.921965,Greater Universal Baptist Church
1039 Madison Ave,Manhattan,Contact store for details,40.776511,-73.961675,Eileen Fisher
1475 Flatbush Ave,Brooklyn,"Clothing, Shoes",40.63465,-73.949185,Usagain LLC
14-79 Beach Channel Dr,Queens,"Clothing, Shoes, Accessories, Bedding and linens, Towels, Coats",40.609873,-73.753869,Helpsy
190-05 Union Tpke,Queens,"Clothing, Shoes, Accessories, Bedding and linens, Towels, Coats",40.730036,-73.779271,Helpsy
1804 Ralph Ave,Brooklyn,"Clothing, Shoes, Accessories",40.633112,-73.919042,Community Recycling LLC
1051 3rd Ave,Manhattan,Used Athletic Shoes collected on behalf of MORE Foundation.,40.7635378,-73.964853,JackRabbit
6501 New Utreacht Ave,Brooklyn,"Clothing, Shoes, Accessories, Bedding and linens, Towels, Coats",40.623181,-73.997534,Helpsy
4525 HENRY HUDSON pkwy,Bronx,"Clothing, Shoes, Accessories, Bedding and linens, Towels, Coats",40.89234,-73.90931,USAGAIN LLC
557 Pennsylvania Ave,Brooklyn,"Clothing, Shoes",40.663763,-73.893497,Usagain LLC
1566 Bedford Ave,Brooklyn,"Clothing, Shoes, Accessories, Bedding and linens, Towels, Coats",40.669094,-73.955981,Helpsy
141-40 Northern Blvd,Queens,"Clothing, Shoes",40.764272,-73.823986,Usagain LLC
4741 White Plains Rd,Bronx,"Clothing, Shoes",40.904689,-73.850021,Usagain LLC
162-10 Jamaica Ave,Queens,"Clothing, Shoes, Coats, Accessories",40.704084,-73.79715,MYUNIQUE Thrift Jamaica
2111 Atlantic Ave,Brooklyn,"Clothing, Shoes, Accessories, Bedding and linens, Towels, Coats",40.676517,-73.909321,Helpsy
60 West 132nd St,Manhattan,"Clothing, Shoes, Coats",40.811508,-73.94108,Bethel African Methodist Episcopal Church
716 Prospect Ave,Brooklyn,"Clothing, Shoes",40.656152,-73.977303,Usagain LLC
4021 Flatlands Ave,Brooklyn,"Clothing, Shoes, Coats, Accessories, Towels, Bedding",40.622778,-73.9333,Purpose Life Church
2164 Ralph Ave,Brooklyn,"Clothing, Shoes, Coats, Towels",40.62444,-73.91811,Carecycle Inc
5 FINGERBOARD RD,Staten Island,"Clothing, Shoes, Accessories, Bedding and linens, Towels, Coats",40.609385,-74.06301,USAGAIN LLC
1610 Bushwick Ave,Brooklyn,"Clothing, Shoes, Accessories, Bedding and linens, Towels, Coats",40.680464,-73.903385,Helpsy
229 Knickerbocker Ave,Brooklyn,"Clothing, Shoes, Coats",40.703128,-73.925419,H&M Leasing Corp
817 Livonia Ave,Brooklyn,Shoes,40.666146,-73.88631,New Hope Family Worship Center
1317 Oak Point Ave,Bronx,"Clothing, Shoes",40.810681,-73.884893,Planet Aid
1738 E GUN HILL RD,Bronx,"Clothing, Shoes, Accessories, Bedding and linens, Towels, Coats",40.8647024,-73.835726,USAGAIN LLC
1003 Clarkson Ave,Brooklyn,"Clothing, Shoes, Accessories, Bedding and linens, Towels, Coats",40.658436,-73.924742,Helpsy
1250 Shakespeare Ave,Bronx,"Clothing, Shoes, Accessories, Bedding and linens, Towels, Coats",40.838455,-73.92287,Helpsy
3578 Boston Rd,Bronx,"Clothing, Shoes, Accessories, Bedding and linens, Towels, Coats",40.878387,-73.843646,Usagain LLC
2040 BRUCKNER blvd,Bronx,"Clothing, Shoes, Accessories, Bedding and linens, Towels, Coats",40.82597,-73.85454,USAGAIN LLC
308 W 46Th St,Manhattan,"Clothing, Shoes, Coats",40.759864,-73.988674,St. Luke's Lutheran Church
25 W 14 St,Manhattan,Denim only.,40.7367281,-73.994777,Levi Strauss
44-02 Broadway,Queens,"Clothing, Shoes, Accessories, Bedding and linens, Towels, Coats",40.757256,-73.915786,Helpsy
556 Wilson Ave,Brooklyn,"clothing, shoes, coats, accessories, bedding, towels, other",40.69082,-73.90866,HELPSY
130-37 Merrick Blvd,Queens,"Clothing, Shoes, Accessories, Bedding and linens, Towels, Coats",40.679935,-73.761702,Helpsy
111 5 Ave,Manhattan,"Clothes and home textiles from any brand, in clean and dry condition. Bring in your items and receive 15% off your next purchase. Visit or call store for more details. I:CO partner - https://www.ico-spirit.com/en/.",40.7385759,-73.991523,H&M
3400 Baychester Ave,Bronx,"Clothing, Shoes, Accessories, Bedding and linens, Towels, Coats",40.879549,-73.837243,Helpsy
340 Willis Ave,Bronx,"Clothing, Shoes, Bedding And Linens, Towels, Coats",40.81134,-73.920964,Abraham House
114-05 Farmers Blvd,Queens,"Clothing, Shoes, Accessories, Bedding and linens, Towels, Coats",40.697781,-73.761993,Helpsy
2101 Broadway,Manhattan,Contact store for details,40.779755,-73.981967,The North Face
222-51 Jamaica Ave,Queens,"Clothing, Shoes",40.721675,-73.731514,Usagain LLC
49 Fulton St,Manhattan,"Clothing, Shoes, Coats, Accessories",40.708202,-74.003801,St. Margaret's House Thrift Shop
319 New Dorp,Staten Island,"Clothing, Shoes, Accessories",40.571707,-74.111631,Community Recycling LLC
1309 Boston Rd,Bronx,"Clothing, Shoes",40.831494,-73.90005,Usagain LLC
3236 Boston Rd,Bronx,"Clothing, Shoes",40.872065,-73.854725,Usagain LLC
420 W 145 St,Manhattan,"Clothing, Shoes, Coats",40.824318,-73.946039,Convent Avenue Baptist Church
185 Kings Hwy,Brooklyn,"Clothing, Shoes, Coats, Towels",40.605899,-73.98438,Carecycle Inc
1490 Hylan Blvd,Staten Island,"Clothing, Shoes, Accessories",40.592177,-74.087324,Community Recycling LLC
268 Elizabeth St.,Manhattan,They only accept T-shirts with the exception of any made of spandex. Can receive $5 credit for each tee up to $25.,40.7240911,-73.993344,Marine Layer
589 5 Ave,Manhattan,"Clothes and home textiles from any brand, in clean and dry condition. Bring in your items and receive 15% off your next purchase. Visit or call store for more details. I:CO partner - https://www.ico-spirit.com/en/.",40.75702,-73.97802,H&M
73-26 Metropolitan Ave,Queens,"Clothing, Shoes, Accessories, Coats, Bedding And Linens, Rugs",40.71272,-73.878368,The Salvation Army Of Greater New York
65-01 Grand Ave,Queens,Contact store for details,40.723304,-73.90094,On the Road Again
30-61 87th St,Queens,"Clothing, Coats, Shoes, Towels, Bedding",40.760001,-73.881278,Atonement Lutheran Church
414 Hooper St,Brooklyn,"Clothing, Shoes, Coats",40.710421,-73.951617,Church of God of Prophecy
6822 3 Ave,Brooklyn,"Clothing, Shoes, Accessories, Coats, Bedding And Linens, Rugs",40.636184,-74.026053,The Salvation Army 3rd Ave
3080 Arthur Kill Rd,Staten Island,"Clothing, Shoes",40.543853,-74.232314,Planet Aid
2400 Hylan Blvd,Staten Island,"Clothing, Shoes, Accessories",40.572297,-74.10701,Community Recycling LLC
1 Smith St,Brooklyn,"Clothing, Shoes, Accessories",40.691101,-73.987273,The HOPE Program (Professional Clothing Only)
150-62 78 Rd,Queens,"Clothing, Shoes, Coats",40.720988,-73.81151,Jewish Food Pantry Of Ahvat Achim
1791 Utica Ave,Brooklyn,"Clothing, Shoes, Coats, Towels",40.628933,-73.927624,Carecycle Inc
200 Mcclean Ave,Staten Island,"Clothing, Shoes, Coats",40.597056,-74.068629,H&M Leasing Corp
3220 WESTCHESTER AVE,Bronx,"Clothing, Shoes, Accessories, Bedding and linens, Towels, Coats",40.8518472,-73.8287882,USAGAIN LLC
18-74 Mott Ave,Queens,"Clothing, Shoes, Accessories, Bedding and linens, Towels, Coats",40.603674,-73.750958,Helpsy
135 N 7 St,Brooklyn,Contact store for details,40.718691,-73.95798,Crossroads Trading Co.
213-02 Jamaica Ave,Queens,"Clothing, Shoes, Accessories, Bedding and linens, Towels, Coats",40.71613,-73.744753,Helpsy
2441 Boston Rd,Bronx,"Clothing, Shoes, Accessories, Coats, Bedding And Linens, Rugs",40.862181,-73.867175,The Salvation Army Of Greater New York
1455 Fulton Ave,Bronx,"Clothing, Shoes, Coats, Accessories, Towels, Bedding",40.835793,-73.901026,Community Action for Human Services
1001 E 100 St,Brooklyn,"Clothing, Shoes",40.643271,-73.89584,Usagain LLC
2958 Atlantic Ave,Brooklyn,"Clothing, Shoes",40.67754,-73.884953,Usagain LLC
71-30 Beach Channel Dr,Queens,"Clothing, Shoes, Accessories, Bedding and linens, Towels, Coats",40.591853,-73.800352,Helpsy
1781 Atlantic Ave,Brooklyn,"Clothing, Shoes, Accessories, Bedding and linens, Towels, Coats",40.677482,-73.927889,Helpsy
513 Flatbush Ave,Brooklyn,"Clothing, Shoes, Accessories, Bedding and linens, Towels, Coats",40.661457,-73.960986,Helpsy
1867 Amsterdam Ave1A,Manhattan,"Clothing, Shoes, Coats, Accessories",40.829832,-73.94399,New York African Chorus Ensemble
1501 Broadway,Manhattan,Denim only.,40.757068,-73.986446,Levi Strauss
3480 Seymour Ave,Bronx,"Clothing, Shoes, Accessories, Coats, Bedding And Linens, Rugs",40.87776,-73.849749,Urban Neighborhood Educational Technology for You Inc
1810 Randall Ave,Bronx,"Clothing, Shoes, Accessories, Bedding and linens, Towels, Coats",40.816936,-73.862545,Usagain LLC
709 Tiffany St,Bronx,"Clothing, Shoes, Coats",40.814067,-73.891327,The Prodigal Center
161-15 Crossbay Blvd,Queens,"Clothing, Shoes, Accessories, Bedding and linens, Towels, Coats",40.655157,-73.838411,Helpsy
3236 Steinway St,Queens,"Clothing, Shoes, Coats, Accessories",40.758153,-73.91996,Steinway Thrift Shop
39 W 34th Street,Manhattan,"They accept any kind of clothing, fabrics, household linens, footwear, accessories, and jewelry.",40.7743337,-73.982528,Zara
6620 Avenue U,Brooklyn,"Clothing, Shoes, Coats, Towels",40.61718,-73.909521,Carecycle Inc
111-16 173rd St,Queens,"Clothing, Shoes, Bedding And Linens, Coats, Accessories, Rugs, Towels",40.694756,-73.779498,V.E.T.S. Inc
213 West 34th Street,Manhattan,Shoes,40.751413,-73.991204,DSW
1139 Bushwick Ave,Brooklyn,"Clothing, Shoes, Coats",40.68971,-73.917917,Bushwick Community Council Inc
4415 AveL Pvt,Brooklyn,"Clothing, Shoes, Coats",40.623429,-73.932561,helpinghands for life
115-50 Merrick Blvd,Queens,"Clothing, Shoes",40.688508,-73.777157,Usagain LLC
1029 Washington Ave,Bronx,"Clothing, Shoes, Accessories, Bedding and linens, Towels, Coats",40.826846,-73.909661,County Recycling LLC
341 Columbus Ave,Manhattan,Contact store for details,40.780098,-73.976598,Eileen Fisher
570 Manhattan Ave,Brooklyn,Contact store for details,40.722506,-73.94992,Fox & Fawn
146 Wolcott St,Brooklyn,"Clothing, Shoes",40.678604,-74.01429,Usagain LLC
214 W 97 St,Manhattan,"Clothing, Shoes, Coats, Accessories, Beddings And Linens, Towels, Rugs",40.794839,-73.970675,St. Francis Thrift Store/ Food Pantry
90-77 198 St,Queens,"Clothing, Shoes, Accessories, Bedding and linens, Towels, Coats",40.713974,-73.760885,Helpsy
1600-1650 Bruckner Blvd,Brooklyn,"Clothing, Shoes, Coats",40.823418,-73.874646,H&M Leasing Corp
1248 Coney Island Ave,Brooklyn,"Clothing, Shoes, Accessories, Bedding and linens, Towels, Coats",40.627399,-73.96606,Helpsy
1252 Madison Ave,Manhattan,The nonprofit Free the Girls accepts gently-used bras at this store location.,40.783378,-73.957219,Rigby & Peller - New York Madison @ 90th
1492 Hylan Blvd,Staten Island,"Clothing, Shoes, Accessories",40.591824,-74.087151,Community Recycling LLC
627 Broadway,New York,"Bedding - sheets & blankets. All brands in clean, dry condition accepted. Please place sheets in a sealed plastic bag. Visit or call store for more details. I:CO partner - https://www.ico-spirit.com/en/",40.7261831,-73.996509,Casper Sleep Shop
1153 Forest Ave,Staten Island,"Clothing, Shoes",40.626801,-74.128469,Usagain LLC
155 Utica Ave,Brooklyn,"Clothing, Shoes",40.673545,-73.930494,Usagain LLC
128-02 14 Ave,Queens,"Clothing, Shoes, Accessories, Bedding and linens, Towels, Coats",40.785194,-73.840012,County Recycling LLC
2241 Southern Blvd,Bronx,"Clothing, Shoes",40.849291,-73.883535,Usagain LLC
635 Madison Avenue,Manhattan,"Clothing & shoes. Bring in your unwanted items & receive an exclusive bag made from re-purposed fabrics while supplies last. All brands in clean, dry condition accepted. Visit or call store for more details. I:CO partner - https://www.ico-spirit.com/en/",40.7636,-73.97113,Suitsupply
319 Kings Hwy,Brooklyn,"Clothing, Shoes, Accessories",40.605162,-73.978366,Community Recycling LLC
75-15 Northern Blvd,Queens,"Clothing, Shoes, Accessories, Bedding and linens, Towels, Coats",40.755077,-73.891123,Helpsy
169-65 137 Ave,Queens,"Clothing, Shoes, Accessories, Bedding and linens, Towels, Coats",40.672881,-73.770503,County Recycling LLC
126-01 Hillside Ave,Queens,"Clothing, Shoes, Coats, Towels",40.702973,-73.825292,Carecycle Inc
62-59 Fresh Pond Rd,Queens,"Clothing, Shoes, Accessories, Bedding and linens, Towels, Coats",40.712286,-73.900135,Helpsy
28 Caton Ave,Brooklyn,"Clothing, Shoes, Accessories, Bedding and linens, Towels, Coats",40.647086,-73.980656,Helpsy
1180 Bay St,Staten Island,"Clothing, Shoes, Accessories",40.614378,-74.066616,Community Recycling LLC
3763 83rd St,Queens,"Clothing, Shoes, Coats",40.747994,-73.882843,LGBT Center Intercultural Collective Inc.
1414 Castleton Ave,Staten Island,"Clothing, Shoes",40.633676,-74.129754,Planet Aid
27-07 Francis Lewis Blvd,Queens,"Clothing, Shoes, Coats, Towels",40.772094,-73.794246,Carecycle Inc
2600 Hylan Blvd,Staten Island,"Clothing, Shoes, Coats, Accessories, Bedding, Towels, Other",40.566216,-74.112663,American Recycling Technologies Inc.
126-02 82 Ave,Queens,"Clothing, Shoes, Accessories, Coats, Bedding And Linens, Fabric",40.756683,-73.828871,Garden of Hope
529 Utica Ave,Brooklyn,"Clothing, Shoes, Accessories, Bedding and linens, Towels, Coats",40.660483,-73.930708,Helpsy
222 East 23 St,Manhattan,"Clothing, Shoes, Linens, Accessories, Rugs",40.738245,-73.98216,City Opera Thrift Shop
1145 Glenmore Ave,Brooklyn,"Clothing, Shoes",40.677641,-73.866601,Usagain LLC
145-03 Rockaway Blvd,Queens,"Clothing, Shoes, Coats, Accessories, Beddings And Linens, Towels, Rugs",40.673878,-73.79345,Morris Brown Helping Hand Food Program
235 E 233 St,Bronx,"Clothing, Shoes, Accessories, Bedding and linens, Towels, Coats",40.896546,-73.869243,Helpsy
4109 Park Ave,Bronx,"Clothing, Shoes, Accessories, Coats, Bedding And Linens, Rugs",40.845568,-73.90103,The Salvation Army Of Greater New York
109-41 Francis Lewis Blvd,Queens,"Clothing, Shoes, Coats",40.70774,-73.751029,Women on the Rise for God Ministries
765 Putnam Ave,Brooklyn,"Clothing, Shoes",40.686486,-73.930884,Planet Aid
3901 New Utrecht Ave,Brooklyn,"Clothing, Shoes",40.645157,-73.99416,Usagain LLC
58-01 Queens Blvd,Queens,"Clothing, Shoes, Coats, Towels",40.74221,-73.906818,Carecycle Inc
7718 Flatlands Ave,Brooklyn,"Clothing, Shoes",40.634181,-73.914649,Usagain LLC
515 5 Ave,Brooklyn,"Clothing, Shoes, Linens, Accessories",40.666485,-73.988099,Life Boutique Thrift
172-12 Hillside Ave,Queens,"Clothing, Shoes",40.711746,-73.789635,Usagain LLC
109 Boerum Pl,Brooklyn,Contact store for details,40.688172,-73.99121,Buffalo Exchange
175-04 Horace Harding Expy,Queens,"Clothing, Shoes, Accessories, Bedding and linens, Towels, Coats",40.738305,-73.793949,Helpsy
446 New Lots Ave,Brooklyn,"Clothing, Shoes",40.662457,-73.891054,Usagain LLC
3816 9th Ave,Manhattan,"Clothing, Shoes, Coats",40.862224,-73.918497,NYC Love Kitchen
187 Beach 115 St,Queens,"Clothing, Shoes, Accessories, Bedding and linens, Towels, Coats",40.579689,-73.836212,Helpsy
253-01 Union Tpke,Queens,"Clothing, Shoes, Accessories, Bedding and linens, Towels, Coats",40.744553,-73.717292,Friendship Circle
18-33 Cornaga Ave,Queens,"Clothing, Shoes, Accessories, Bedding and linens, Towels, Coats",40.602224,-73.750637,Helpsy
469 Vermont St,Brooklyn,"Clothing, Shoes, Accessories, Bedding and linens, Towels, Coats",40.667991,-73.892726,Helpsy
64 W 35 St 3 Fl,Manhattan,"Clothing, Shoes, Coats",40.750142,-73.986834,The Alliance for Positive Change
33-34 21 St,Queens,"Clothing, Shoes",40.763976,-73.933364,Usagain LLC
59-65 Prince St,Brooklyn,"Clothing, Shoes",40.695576,-73.982255,CAMBA Opportunity House
844 E 163 St,Bronx,"Clothing, Shoes, Coats",40.822109,-73.900559,The HopeLine
170 Broad St,Staten Island,"Clothing, Shoes",40.623982,-74.08028,Planet Aid
46-25 Greenpoint Ave,Queens,"Clothing, Shoes, Coats, Accessories",40.742605,-73.91813,Sunnyside Thrift Shop
39 1/2 Washington Sq. South,Manhattan,Contact store for details,40.730927,-73.99928,Clementine Consignment
350 Grand Concourse,Bronx,"Clothing, Shoes, Accessories, Bedding and linens, Towels, Coats",40.81563,-73.928355,Helpsy
425 West 47 St,Manhattan,"Clothing, Shoes, Coats",40.762246,-73.991221,Fountain House Thrift Shop
550 Gateway Drive,Brooklyn,Shoes,40.654285,-73.870567,DSW
1412 Eastern Pkwy,Brooklyn,"Clothing, Shoes, Accessories, Bedding and linens, Towels, Coats",40.66863,-73.921492,Helpsy
495 Broadway,Manhattan,Denim only.,40.7221491,-73.99985,Levi Strauss
2439 Creston Ave,Bronx,"Clothing, Shoes",40.861494,-73.899153,Usagain LLC
144-34 Farmers Blvd,Queens,"Clothing, Shoes",40.667609,-73.766967,Usagain LLC
2981 Ocean Ave,Brooklyn,"Clothing, Shoes, Coats, Towels",40.588328,-73.948932,Carecycle Inc
3308 Edson Ave,Bronx,"Clothing, Shoes, Coats",40.877446,-73.837407,Adventist Community Services
30-05 Whitestone Expy,Queens,"Clothing, Shoes",40.770271,-73.833544,Usagain LLC
38 Wiman Pl,Staten Island,"Clothing, Shoes, Coats, Accessories, Bedding And Linens, Towels, Rugs",40.615694,-74.06634,Good Counsel Homes
4001 4 Ave,Brooklyn,"Clothing, Shoes",40.651744,-74.006681,Usagain LLC
1051 Third Ave,Manhattan,The nonprofit Free the Girls accepts gently-used bras at this store location.,40.7635378,-73.964853,Rigby & Peller
758 E 233 St,Bronx,"Clothing, Shoes, Accessories, Bedding and linens, Towels, Coats",40.892494,-73.85546,Helpsy
2453 Westchester Ave,Bronx,"Clothing, Shoes",40.838131,-73.845812,Usagain LLC
119-01 Atlantic Ave,Queens,"Clothing, Shoes",40.694504,-73.827915,Usagain LLC
446 W 36 St,Manhattan,"Clothing, Shoes, Coats, Bedding And Linens, Accessories",40.755358,-73.997488,MCCNY Charities
1517 3 Ave,Manhattan,"Clothing, Shoes, Purses, Gloves, Scarves, Hats, belts, Towels, Curtains, Bedding and Linens. Clean Rags and Torn Clothing",40.77838,-73.95392,Athleta
571 Coney Island Ave,Brooklyn,"Clothing, Shoes, Accessories, Bedding and linens, Towels, Coats",40.643334,-73.969481,Helpsy
145-105 Guy R Brewer Blvd,Queens,"Clothing, Shoes",40.663374,-73.768217,Usagain LLC
681 E Tremont Ave,Bronx,"Clothing, Shoes, Accessories, Bedding and linens, Towels, Coats",40.845792,-73.891299,Usagain LLC
1640 Flatbush Ave,Brooklyn,"Clothing, Shoes, Coats, Accessories, Bedding, Towels, Other",40.630364,-73.945419,American Recycling Technologies Inc.
565 Manor Rd,Staten Island,Contact store for details,40.613489,-74.12241,Monkey Girlz Treasures Consignment Boutique
145-55 Guy R Brewer Blvd,Queens,"Clothing, Shoes, Accessories, Bedding and linens, Towels, Coats",40.664547,-73.768585,Helpsy
218 W 234 St,Bronx,"Clothing, Shoes, Coats, Accessories",40.882037,-73.90366,MYUNIQUE Thrift Bronx
235 West Broadway,Manhattan,Contact store for details,40.719448,-74.005889,J. Crew
2727 Cropsey Ave,Brooklyn,"Clothing, Shoes, Accessories, Bedding and linens, Towels , Coats",40.587914,-73.989236,S L Advantage
186 2 Ave,Manhattan,"Clothing, Shoes, Linens, Accessories",40.730735,-73.98583,East Village Thrift Shop
25-15 Seagirt Blvd,Queens,"Clothing, Shoes, Accessories, Bedding and linens, Towels, Coats",40.595326,-73.759048,Helpsy
237-08 Braddock Ave,Queens,"Clothing, Shoes, Coats, Accessories, Bedding, Towels, Other",40.727056,-73.73026,American Recycling Technologies Inc.
7307 18th Ave,Brooklyn,"Clothing, Shoes, Coats",40.61408,-73.9949,The Salvation Army Bensonhurst Corps
223 Main St,Staten Island,"Clothing, Shoes, Accessories",40.509662,-74.247445,Tottenville Thrift Shop
46-25 Kissena Blvd,Queens,"Clothing, Shoes, Coats, Accessories, Bedding, Towels, Other",40.75023,-73.817918,American Recycling Technologies Inc.
125 W 125 St,Manhattan,"Clothes and home textiles from any brand, in clean and dry condition. Bring in your items and receive 15% off your next purchase. Visit or call store for more details. I:CO partner - https://www.ico-spirit.com/en/.",40.8084736,-73.946826,H&M
2869 Fulton St,Brooklyn,"Clothing, Shoes, Accessories, Bedding and linens, Towels, Coats",40.678966,-73.888445,Helpsy
169 E 98 St,Brooklyn,"Clothing, Shoes",40.662982,-73.920468,Usagain LLC
9015 Queens Blvd,Queens,"Clothing & shoes. Bring in a minimum of 5 items & receive 15% off your next purchase. All brands in clean, dry condition accepted. Visit or call store for more details. I:CO partner - https://www.ico-spirit.com/en/",40.7346132,-73.86945,GUESS
1881 Forest Ave,Staten Island,"Clothing, Shoes",40.62571,-74.151705,Planet Aid
184-17 Hillside Ave,Queens,"Clothing, Shoes",40.714396,-73.777456,Usagain LLC
6709 108 St,Queens,"Clothing, Shoes",40.728734,-73.847098,Usagain LLC
20-49 Palmetto St,Queens,"Clothing, Shoes",40.707133,-73.903611,Usagain LLC
81-02 Atlantic Ave,Queens,"Clothing, Shoes, Accessories, Bedding and linens, Towels, Coats",40.68473,-73.85963,Helpsy
1205 Flatbush Ave,Brooklyn,"Clothing, Shoes",40.640881,-73.955752,Planet Aid
21b Bellamy Loop,Bronx,"Clothing, Coats, Shoes, Bedding",40.872846,-73.82613,Good Shepherd Hands Corp.
252 1st Ave,Manhattan,"Clothing, Shoes, Accessories, Bedding and linens, Towels, Coats",40.731901,-73.98172,Green Tree Textiles at Stuyvesant Town Greenmarket
189-03 Union Tpke,Queens,"Clothing, Shoes, Accessories, Bedding and linens, Towels, Coats",40.72935,-73.77987,Friendship Circle
1169 Bay St,Staten Island,"Clothing, Shoes, Accessories",40.614809,-74.066443,Community Recycling LLC
972 Remsen Ave,Brooklyn,"Clothing, Shoes, Accessories, Bedding and linens, Towels, Coats",40.644289,-73.910975,Helpsy
2107 Cornaga AveFar,Queens,"Clothing, Shoes, Accessories, Bedding and linens, Towels, Coats",40.602021,-73.754232,Helpsy
526 Georgia Ave,Brooklyn,"Clothing, Shoes, Coats",40.663515,-73.895971,Pentecostal Church of God in Christ
114 5th Ave,Manhattan,"Clothing, Shoes, Purses, Gloves, Scarves, Hats, belts, Towels, Curtains, Bedding and Linens. Clean Rags and Torn Clothing",40.7379,-73.99269,Lululemon
6025 6th Ave,Brooklyn,"Clothing, Shoes, Coats",40.637551,-74.014162,Family Support Center of NYU Langone
4640 Furman Ave,Bronx,"Clothing, Shoes, Coats",40.902461,-73.849667,RCCG Tabernacle of Restoration
150-51 Northern Blvd,Queens,"Clothing, Shoes, Coats",40.765365,-73.813326,H&M Leasing Corp
167 Chester St,Brooklyn,"Clothing, Shoes, Coats",40.667733,-73.910955,Mt. Hebron Church of Christ
298 W 231 St,Bronx,"Clothing, Shoes, Accessories, Bedding and linens, Towels, Coats",40.880539,-73.908334,County Recycling LLC
484 Knickerbocker Ave,Brooklyn,"Clothing, Shoes, Coats",40.698028,-73.917556,Ujima Community Working Together
1968 Jerome Ave,Bronx,"Clothing, Shoes",40.851866,-73.908586,Usagain LLC
120 East 32nd,Manhattan,"Clothing, Shoes, Accessories, Coats",40.745281,-73.981419,Grand Central Neighborhood Social Service Corporation
49 Tompkins Ave,Staten Island,"Clothing, Shoes, Bedding And Linens, Coats, Accessories, Rugs, Towels, Fabric",40.623361,-74.078731,Stapleton UAME Church
108-11 Sutphin Blvd,Queens,"Clothing, Shoes, Accessories, Bedding and linens, Towels, Coats",40.693255,-73.798249,Helpsy
2759 Webster Ave,Bronx,"Clothing, Shoes, Coats",40.865481,-73.88636,Part of the Solution (POTS)
281 Bruckner Blvd,Bronx,"Clothing, Shoes, Accessories, Bedding and linens, Towels, Coats",40.805649,-73.911324,Helpsy
401 E 80 St,Brooklyn,"Clothing, Shoes, Accessories, Bedding and linens, Towels, Coats",40.640972,-73.918985,Helpsy
94-02 111 St,Queens,"Clothing, Shoes, Coats, Accessories, Bedding, Towels, Other",40.691795,-73.835047,American Recycling Technologies Inc.
2259 Ralph Ave,Brooklyn,"Clothing, Shoes, Coats, Accessories, Bedding, Towels, Other",40.622815,-73.917079,American Recycling Technologies Inc.
1420 Bushwick Ave,Brooklyn,"Clothing, Shoes, Coats",40.684115,-73.909229,"Family Service Network of NY, Inc"
358 St Marks Pl,Staten Island,"Clothing, Shoes",40.641062,-74.078049,Families on the Move NYC
2811 Boston Rd,Bronx,"Clothing, Shoes, Accessories, Bedding and linens, Towels, Coats",40.867477,-73.86033,Helpsy
1255 Westchester Ave,Bronx,"Clothing, Shoes",40.827199,-73.887326,Usagain LLC
46-06 Ditmars Blvd,Queens,"Clothing, Shoes, Accessories, Bedding And Linens, Towels , Coats",40.770053,-73.902437,American Recycling Resources
10 Columbus Circle,Manhattan,Contact store for details,40.768237,-73.982865,J. Crew
414 W 14 St,Manhattan,Contact store for details,40.741184,-74.006555,Patagonia
263 W 86th St,Manhattan,"Clothing, Shoes, Coats",40.788925,-73.977286,West Side Campaign Against Hunger
1430 Watson Ave,Bronx,"Clothing, Shoes",40.825251,-73.882611,Usagain LLC
352 E 149 St,Bronx,"Clothing, Shoes, Accessories, Coats, Bedding And Linens, Rugs",40.816367,-73.919421,The Salvation Army 149th Street
2008 Webster Ave,Bronx,"Clothing, Shoes, Accessories, Bedding and linens, Towels, Coats",40.850287,-73.899009,Helpsy
321 8 ave,Manhattan,"used clothing, textiles and shoes",40.74702,-73.99775,Wareable Collections
82-10 Queens Blvd,Queens,"Clothing, Shoes, Coats",40.736946,-73.881164,New Life Community Development Corporation
4008 Corporal Kennedy St,Queens,"Accessories, Linens",40.762879,-73.775871,The Worthy Pause Thrift & Gift Shop
41 West 124 St,Manhattan,"Clothing, Shoes, Coats",40.80661,-73.944179,Antioch Outreach Ministries
9-18 27 Ave,Queens,Clothing,40.773658,-73.930588,The Bridge to Life
145-15 Rockaway Blvd,Queens,"Clothing, Shoes",40.673882,-73.792985,Planet Aid
3560 Amboy Rd,Staten Island,"Clothing, Shoes, Coats, Accessories, Bedding, Towels, Other",40.554779,-74.140292,American Recycling Technologies Inc.
4844 Hylan Blvd,Staten Island,"Clothing, Shoes, Coats, Accessories, Bedding, Towels, Other",40.526554,-74.167381,American Recycling Technologies Inc.
2094 Fulton St,Brooklyn,"Clothing, Shoes, Coats",40.678332,-73.913849,Neighbors Together
114-02 Guy R Brewer Blvd,Queens,"Clothing, Shoes",40.688524,-73.785806,Usagain LLC
115 E 138 St,Bronx,"Clothing, Shoes, Accessories, Bedding and linens, Towels, Coats",40.813835,-73.930654,Helpsy
87 Oak St,Brooklyn,Contact store for details,40.727751,-73.95744,Flying Squirrel
5001 Kings Hwy,Brooklyn,"Clothing, Shoes, Accessories, Bedding and linens, Towels, Coats",40.634925,-73.92829,Helpsy
64-01 Woodhaven Blvd,Queens,"Clothing, Shoes",40.721465,-73.865941,Usagain LLC
2172 Forest Ave,Staten Island,"Clothing, Shoes",40.626093,-74.162,Usagain LLC
8772 18 Ave,Brooklyn,"Clothing, Shoes, Coats, Accessories, Bedding, Towels, Other",40.603831,-74.006647,American Recycling Technologies Inc.
112-20 Farmers Blvd,Queens,"Clothing, Shoes, Accessories, Bedding and linens, Towels, Coats",40.700123,-73.764115,Helpsy
2915 Surf Ave,Brooklyn,"Clothing, Shoes",40.573004,-73.995582,Planet Aid
719 E 223rd St,Bronx,"Clothing, Shoes, Coats",40.886364,-73.860407,Shiloh Temple Church
740 40th St,Brooklyn,"Clothing, Shoes, Coats",40.647254,-73.999422,Children of the City
7310 New Utrecht Ave,Brooklyn,"Clothing, Shoes, Coats, Accessories, Bedding, Towels, Other",40.617062,-73.999806,American Recycling Technologies Inc.
25-39 Parsons Blvd,Queens,"Clothing, Shoes, Coats, Accessories, Bedding, Towels, Other",40.775691,-73.823584,American Recycling Technologies Inc.
1862 Webster Ave,Bronx,"Clothing, Shoes, Accessories, Bedding and linens, Towels, Coats",40.846966,-73.90083,Helpsy
3055 Westchester Ave,Bronx,"Clothing, Shoes, Accessories, Bedding and linens, Towels, Coats",40.848547,-73.831155,County Recycling LLC
219-14 Merrick Blvd,Queens,"Clothing, Shoes, Coats, Towels",40.678989,-73.750265,Carecycle Inc
920 Teller Ave,Bronx,"Clothing, Shoes, Accessories, Bedding and linens, Towels, Coats",40.826159,-73.915377,Helpsy
1018 Morris Park Ave,Bronx,"Clothing, Shoes",40.848202,-73.855483,Usagain LLC
6372 Amboy Rd,Staten Island,"Clothing, Shoes, Accessories, Bedding And Linens, Towels , Coats",40.522488,-74.216442,American Recycling Resources
375 Manor Rd,Staten Island,"Clothing, Shoes",40.618482,-74.123239,Usagain LLC
1535 Broadway,Manhattan,Denim only.,40.7587381,-73.986189,Levi Strauss
5414 Church Ave,Brooklyn,"Clothing, Shoes",40.652173,-73.925869,Usagain LLC
122-11 Hillside Ave,Queens,"Clothing, Shoes, Accessories, Bedding and linens, Towels, Coats",40.702369,-73.82852,Helpsy
2190 Adam Clayton Powell Jr Blvd,Manhattan,"Clothing, Shoes, Coats",40.811944,-73.94661,Salem United Methodist Church
130 Havemeyer St,Brooklyn,"Clothing, Shoes, Accessories, Bedding and linens, Towels, Coats",40.712588,-73.957428,HELPSY
609 Hegeman Ave,Brooklyn,"Clothing, Shoes",40.66112,-73.88949,Usagain LLC
164-05 69 Ave,Queens,"Clothing, Shoes, Accessories, Bedding and linens, Towels, Coats",40.733392,-73.804502,Helpsy
111-54 Merrick Blvd,Queens,"Clothing, Shoes, Coats",40.693478,-73.780558,Allen Outreach Ministry Feeding Program
2285 Flatbush Ave,Brooklyn,"Clothing, Shoes, Accessories, Bedding and linens, Towels, Coats",40.614802,-73.927773,Helpsy
2655 Richmond Avenue,Staten Island,"Clothing & shoes. Bring in a minimum of 5 items & receive 15% off your next purchase. All brands in clean, dry condition accepted. Visit or call store for more details. I:CO partner - https://www.ico-spirit.com/en/",40.582063,-74.165618,GUESS
1 12th St,Brooklyn,"Clothing, Shoes, Coats, Accessories",40.672035,-73.996576,Big Reuse
1266 Third Ave,Manhattan,The nonprofit Free the Girls accepts gently-used bras at this store location.,40.7704535,-73.96037,Journelle (Upper East Side)
614 W 114 St,Manhattan,"Clothing, Shoes, Coats",40.806877,-73.96586,Community Impact at Columbia University: Food Pantry
8715 3 Ave,Brooklyn,Contact store for details,40.62226,-74.03129,Consign Connection
443 Castleton Ave,Staten Island,"Clothing, Shoes",40.633966,-74.097198,Usagain LLC
21-02 21 Ave,Queens,"Clothing, Shoes, Accessories, Bedding and linens, Towels, Coats",40.78121,-73.915596,Helpsy
460 Quincy Ave,Bronx,"Clothing, Shoes",40.821293,-73.821482,Usagain LLC
1243 Fulton St,Brooklyn,"Clothing, Shoes, Accessories, Coats, Bedding And Linens, Rugs",40.680772,-73.951864,The Salvation Army Of Greater New York
716 Chester St,Brooklyn,"Clothing, Shoes, Coats",40.653702,-73.90776,Christian Cultural Center
199 Brook Ave,Bronx,"Clothing, Shoes",40.806641,-73.920227,Usagain LLC
666 5th Avenue,Manhattan,UNIQLO Clothing,40.76032,-73.97617,UNIQLO
1721 Nostrand Ave,Brooklyn,"Clothing, Shoes, Accessories",40.643842,-73.948427,Community Recycling LLC
537 Conduit Blvd,Brooklyn,"Clothing, Shoes, Accessories",40.677589,-73.869361,Community Recycling LLC
3210 Webster Ave,Bronx,"Clothing, Shoes, Accessories, Bedding and linens, Towels, Coats",40.874263,-73.873597,Helpsy
4220 Bronx Blvd,Bronx,"Clothing, Shoes, Accessories, Bedding and linens, Towels, Coats",40.895283,-73.860761,County Recycling LLC
937 Broadway,Brooklyn,"Clothing, Shoes, Accessories, Coats, Bedding And Linens, Rugs",40.697323,-73.935512,The Salvation Army Of Greater New York
3211B White Plains Rd,Bronx,"Clothing, Shoes, Accessories, Bedding and linens, Towels, Coats",40.871842,-73.867351,Helpsy
1720 Church Ave,Brooklyn,"Clothing, Shoes, Coats",40.649091,-73.96337,CAMBA Inc.
2348 Adam Clayton Powell Jr. Blvd,Manhattan,"Clothing, Shoes, Coats, Accessories, Beddings And Linens, Towels",40.817131,-73.942802,Iris House
56-02 Broadway,Queens,"Clothing, Shoes, Coats",40.752262,-73.904893,H&M Leasing Corp
125 Mercer St,Manhattan,The nonprofit Free the Girls accepts gently-used bras at this store location.,40.7243186,-73.999215,Journelle (Soho)
121-08 15 Ave,Queens,"Clothing, Shoes, Accessories, Bedding and linens, Towels, Coats",40.784072,-73.846294,County Recycling LLC
102-16 89 Ave,Queens,"Clothing, Shoes, Coats, Accessories, Bedding And Linens, Towels",40.693131,-73.843549,Calvary's Mission
238 Vermont St,Brooklyn,"Clothing, Shoes, Accessories, Bedding and linens, Towels, Coats",40.673926,-73.894611,Helpsy
1104 Elder Ave,Bronx,"Clothing, Shoes, Accessories, Coats",40.82634,-73.878364,Feed My Sheep Community Pantry
181 Lexington Ave,Brooklyn,"Clothing, Shoes, Accessories, Bedding and linens, Towels, Coats",40.687331,-73.955155,Helpsy
1255 E Gun Hill Rd,Bronx,"Clothing, Shoes, Accessories, Bedding and linens, Towels, Coats",40.87247,-73.850429,County Recycling LLC
1040 Madison Ave,Manhattan,Contact store for details,40.776635,-73.962272,J. Crew
34-20 Junction Blvd,Queens,"Clothing, Shoes, Accessories, Bedding and linens, Towels, Coats",40.754153,-73.872642,Helpsy
408 Fulton St,Brooklyn,"Clothing, Shoes, Coats, Accessories",40.689382,-73.98156,MYUNIQUE Thrift Brooklyn
114 W 26 St,Manhattan,Contact store for details,40.74497,-73.99242,Buffalo Exchange
117-36 Farmers BlvdQ,Queens,"Clothing, Shoes, Accessories, Bedding and linens, Towels, Coats",40.690423,-73.762577,Helpsy
976 Park Pl,Brooklyn,"Clothing, Shoes, Bedding And Linens, Towels, Coats",40.672931,-73.94519,Anchor House: Women's Facility
3220 WESTCHESTER AVE,Bronx,"Clothing, Shoes, Accessories, Bedding and linens, Towels, Coats",40.8518472,-73.828788,USAGAIN LLC
503 Broadway,Manhattan,"They accept any kind of clothing, fabrics, household linens, footwear, accessories, and jewelry.",40.7626903,-73.968264,Zara
599 AVENUE Z,Brooklyn,"Clothing, Shoes, Accessories, Bedding and linens, Towels, Coats",40.58645,-73.97179,American Recycling Technologies Inc.
112-90 Guy R Brewer Blvd,Queens,"Clothing, Shoes",40.689446,-73.786276,Usagain LLC
202-16 Hillside Ave,Queens,"Clothing, Shoes, Accessories, Bedding and linens, Towels, Coats",40.719959,-73.761139,Helpsy
55 Water St,Manhattan,Contact store for details,40.703323,-74.008896,J. Crew
3829 Ave K,Brooklyn,"Clothing, Shoes, Accessories, Bedding and linens, Towels, Coats",40.626042,-73.938829,Green Tree Textiles
160 Park Hill Ave,Staten Island,"Clothing, Shoes, Coats, Accessories, Towels, Bedding",40.615753,-74.081192,Keepers of Christ Mystery Ministry
2001 Oriental Blvd T4-216,Brooklyn,Clothing,40.577814,-73.935561,CUNY EDGE Program at Kingsborough Community College
125-01 Rockaway Blvd,Queens,"Clothing, Shoes",40.675622,-73.81275,Usagain LLC
1164 Broadway,Brooklyn,"Clothing, Shoes, Accessories, Bedding and linens, Towels, Coats",40.692735,-73.928244,Helpsy
218-26 141 Ave,Queens,"Clothing, Shoes, Accessories, Bedding and linens, Towels, Coats",40.671184,-73.755748,Helpsy
1021 Park Avenue,Manhattan,The nonprofit Free the Girls accepts gently-used bras at this store location.,40.7794718,-73.957267,Dr. Nina S. Naidu MD FACS
489 EAST NEW YORK AVE,Brooklyn,"Clothing, Shoes, Accessories, Bedding and linens, Coats",40.662039,-73.946493,American Recycling Resources
4068 3 Ave,Bronx,"Clothing, Shoes, Accessories, Bedding and linens, Towels, Coats",40.843397,-73.897563,Helpsy
5802 23 Ave,Brooklyn,"Clothing, Shoes, Accessories, Bedding and linens, Towels, Coats",40.616381,-73.975615,Helpsy
719 New Lots Ave,Brooklyn,"Clothing, Shoes, Accessories, Bedding and linens, Towels, Coats",40.666028,-73.884287,Helpsy
332 E 11th St,Manhattan,Contact store for details,40.729608,-73.98484,Buffalo Exchange
413 E 120th St,Manhattan,"Clothing, Coats",40.798345,-73.932548,"Sonia's Empowering Families Foundation, Inc."
70-20 Rockaway Beach Blvd,Queens,"Clothing, Shoes, Coats",40.590265,-73.799447,H&M Leasing Corp
21-01 Astoria Blvd,Queens,"Clothing, Shoes",40.772379,-73.925562,Usagain LLC
1129 Clarkson Ave,Brooklyn,"Clothing, Shoes",40.660647,-73.921122,Usagain LLC
155-15 Aguilar Ave,Queens,"Clothing, Shoes, Coats, Towels",40.728586,-73.812958,Carecycle Inc
521 Madison Ave,Manhattan,Contact store for details,40.759862,-73.973751,Eileen Fisher
1215 Sutter Ave,Brooklyn,"Clothing, Shoes",40.672815,-73.873239,Usagain LLC
209 Cross Bay Blvd,Queens,"Clothing, Shoes, Accessories, Bedding and linens, Towels, Coats",40.613687,-73.821183,Helpsy
104-38 Jamaica Ave,Queens,"Clothing, Shoes",40.69498,-73.842096,Usagain LLC
26-04 18 St,Queens,"Clothing, Shoes",40.77414,-73.92711,Usagain LLC
44-02 Astoria Blvd,Queens,"Clothing, Shoes",40.768021,-73.907002,Usagain LLC
30 E 17 St,Manhattan,"Clothing, Shoes, Linens, Accessories",40.73724,-73.991045,Union Square Greenmarket: GrowNYC Clothing & Textile Recycling Collections
331 Port Richmond Ave,Staten Island,"Clothing, Shoes",40.633485,-74.136245,Usagain LLC
409 Bushwick Ave,Brooklyn,"Clothing, Shoes, Accessories, Bedding and linens, Towels, Coats",40.703276,-73.937038,Usagain LLC
437 Bolton Ave,Bronx,"Clothing, Shoes",40.814619,-73.857792,Usagain LLC
110-14 Farmers Blvd,Queens,"Clothing, Shoes",40.702792,-73.766953,Usagain LLC
569 Wilson Ave,Brooklyn,"Clothing, Shoes",40.69108,-73.908517,Usagain LLC
4090 Boston Rd,Bronx,"Clothing, Shoes, Accessories, Bedding and linens, Towels, Coats",40.885608,-73.828246,Helpsy
1963 Broadway,Manhattan,"They accept any kind of clothing, fabrics, household linens, footwear, accessories, and jewelry.",40.7600369,-73.976398,Zara
1135 E 222 St,Bronx,"Clothing, Shoes, Accessories, Bedding and linens, Towels, Coats",40.881958,-73.849295,Helpsy
66 E 96th St,Brooklyn,"Clothing, Shoes, Coats, Accessories, Towels, Bedding",40.664146,-73.925219,Lighthouse of Hope Outreach and Resource Center
166 Smith St,Brooklyn,"Clothing, Shoes, Accessories, Bedding And Linens, Towels , Coats",40.6860196,-73.991221,Lululemon
61-71 Riverdale Ave,Brooklyn,"Clothing, Shoes, Coats",40.660318,-73.914453,Urban Strategies Inc.
71 SULLIVAN st,Brooklyn,"Clothing, Shoes, Accessories, Bedding and linens, Towels, Coats, Rugs",40.72445,-74.00387,USAGAIN LLC
1221 Sutter Ave,Brooklyn,"Clothing, Shoes, Accessories, Bedding and linens, Towels, Coats",40.672837,-73.872987,Helpsy
277 Stuyvesant Ave,Brooklyn,"Clothing, Shoes, Coats",40.685124,-73.93217,Bridge Street Missionary AME Church
2025 Pitman Ave,Bronx,"Clothing, Shoes",40.897127,-73.844097,Usagain LLC
610 Broadway,Manhattan,"Clothing & shoes. All brands in clean, dry condition accepted. Visit or call store for more details. I:CO partner - https://www.ico-spirit.com/en/",40.725563,-73.996317,Adidas
115-34 Sutphin Blvd,Queens,"Clothing, Shoes, Accessories, Bedding and linens, Towels, Coats",40.683919,-73.792699,Helpsy
1245 Broadway,Brooklyn,"Clothing, Shoes, Coats",40.691546,-73.925189,Broadway House Women's Shelter (CAMBA)
89-11 Merrick Blvd,Queens,Accessories,40.707786,-73.794721,The Job & Business Academy at Queens Library
3315 White Plains Rd,Bronx,"Clothing, Shoes",40.873622,-73.867298,Usagain LLC
1320 Richmond Terrace,Staten Island,"Clothing, Shoes, Coats",40.642458,-74.114063,H&M Leasing Corp
151 7th Ave,Brooklyn,Used Athletic Shoes collected on behalf of MORE Foundation.,40.672484,-73.976579,JackRabbit
159-04 Harlem River Dr,Manhattan,"Clothing, Shoes, Accessories, Bedding and linens, Towels, Coats",40.833244,-73.936106,Helpsy
4801 Kings Hwy,Brooklyn,"Clothing, Shoes, Accessories, Bedding and linens, Towels, Coats",40.633131,-73.930081,Helpsy
436 Atlantic Ave,Brooklyn,"Clothing, Shoes, Accessories, Coats, Bedding And Linens, Rugs",40.686227,-73.983967,The Salvation Army Of Greater New York
90 Lafayette St,Manhattan,"Clothing, Shoes, Coats, Bedding And Linens, Accessories",40.717536,-74.001621,Bowery Mission - Tribeca
486 Broadway,Manhattan,Contact store for details,40.721543,-73.999692,Madewell
3501 Boston Rd,Bronx,"Clothing, Shoes, Accessories, Bedding and linens, Towels, Coats",40.877349,-73.846065,Helpsy
700 Sutter Ave,Brooklyn,"Clothing, Shoes",40.669383,-73.892762,Usagain LLC
1544 EAST 174 ST,Bronx,"Clothing, Shoes, Accessories, Bedding and linens, Towels, Coats",40.8339892,-73.878913,USAGAIN LLC
660 W 237 St,Bronx,"Clothing, Shoes, Accessories, Bedding and linens, Towels, Coats",40.887701,-73.91361,Green Tree Textiles at Riverdale Y Sunday Market
179-05 Linden Blvd,Brooklyn,"Clothing, Shoes",40.652756,-73.951888,Usagain LLC
453 Broome Street,Manhattan,"Clothing & shoes. Bring in your unwanted items & receive an exclusive bag made from re-purposed fabrics while supplies last. All brands in clean, dry condition accepted. Visit or call store for more details. I:CO partner - https://www.ico-spirit.com/en/",40.72218,-74.00089,Suitsupply
215-31 99th Ave,Queens,"Clothing, Coats, Shoes, Towels, Bedding",40.714859,-73.742972,Divine Truth Ministry
2463 Westchester Ave,Bronx,"Clothing, Shoes, Accessories, Bedding and linens, Towels, Coats",40.838194,-73.845508,Helpsy
10 Columbus Circle,Manhattan,"Clothes and home textiles from any brand, in clean and dry condition. Bring in your items and receive 15% off your next purchase. Visit or call store for more details. I:CO partner - https://www.ico-spirit.com/en/.",40.76843,-73.98307,H&M
600 Pelham Pkwy,Bronx,"Clothing, Shoes, Accessories, Bedding and linens, Towels, Coats",40.856475,-73.868864,Helpsy
107-55 64 Ave,Queens,"Clothing, Shoes, Accessories, Bedding and linens, Towels, Coats",40.732974,-73.850783,Helpsy
145-41 228 St,Queens,"Clothing, Shoes, Accessories, Bedding and linens, Towels, Coats",40.660866,-73.752063,Helpsy
125 Maiden Ln,Manhattan,"Clothing, Shoes, Accessories",40.706725,-74.006463,Career Gear
127 N 6Th St,Brooklyn,Contact store for details,40.718046,-73.959012,Madewell
10 Brown Ave,Staten Island,"Clothing, Shoes, Accessories",40.550579,-74.149968,Great Kills Thrift Shop
961 E 174 St,Bronx,"Clothing, Shoes, Coats, Accessories, Bedding, Towels, Other",40.837478,-73.884181,American Recycling Technologies Inc.
1066 E 103 St,Brooklyn,"Clothing, Shoes",40.643505,-73.893181,Usagain LLC
680 Liberty Ave,Brooklyn,"Clothing, Shoes, Accessories, Bedding and linens, Towels, Coats",40.675957,-73.88447,Helpsy
2402 Atlantic Ave,Brooklyn,"Clothing, Shoes, Coats",40.675746,-73.905301,Atlantic House Men's Shelter (CAMBA)
156-05 Rockaway Blvd,Queens,"Clothing, Shoes, Accessories, Bedding and linens, Towels, Coats",40.666609,-73.779446,Helpsy
35 Holland Ave,Staten Island,"Clothing, Shoes, Bedding And Linens, Coats, Accessories, Rugs, Towels",40.639331,-74.170393,"WORLD ASSOCIATION FOR COMMUNITY EMPOWERMENT, INC."
24602 S Conduit Ave,Queens,"Clothing, Shoes",40.665167,-73.732595,Usagain LLC
34-02 Steinway St,Queens,"Clothing, Shoes, Accessories, Coats, Bedding And Linens, Rugs",40.756551,-73.921332,The Salvation Army Of Greater New York
272-10 Union Tpke,Queens,"Clothing, Shoes, Accessories, Bedding and linens, Towels, Coats, Rugs",40.752164,-73.701555,Friendship Circle
445 Beach 129 St,Queens,"Clothing, Shoes, Accessories, Bedding and linens, Towels, Coats",40.579056,-73.850023,Helpsy
220-46 Hillside Ave,Queens,"Clothing, Shoes, Accessories, Bedding and linens, Towels, Coats",40.730872,-73.742261,Helpsy
1911-21 Jerome Ave,Bronx,"Clothing, Shoes, Coats, Accessories",40.850475,-73.910377,Susan's Place Classic Re-Runs (Care For The Homeless)
1292 Southern Blvd,Bronx,"Clothing, Shoes, Accessories, Coats, Bedding And Linens, Rugs",40.830641,-73.891476,The Salvation Army Of Greater New York
24 W 26 St,Manhattan,Contact store for details,40.744027,-73.99012,Crossroads Trading Co.
40-24 College Point Boulevard,Queens,UNIQLO Clothing,40.75728,-73.8357,UNIQLO
259 46 St,Brooklyn,"clothing, shoes, coats, accessories, bedding, towels, other",40.6557,-73.9345,HELPSY
2424 Flatbush Ave,Brooklyn,"Clothing, Shoes, Accessories",40.61051,-73.923995,Community Recycling LLC
938 E 163 St,Bronx,"Clothing, Shoes, Coats",40.82071,-73.896276,H&M Leasing Corp
89-17 139 St,Queens,"Clothing, Shoes, Coats, Accessories, Beddings And Linens, Towels",40.702179,-73.812647,Jesus Is the Answer - J.I.T.A. Community Outreach
125 Arlington Ave,Brooklyn,"Clothing, Shoes, Accessories, Bedding and linens, Towels, Coats",40.680285,-73.890122,Helpsy
9015 Queens Blvd,Queens,"Clothing & shoes. Bring in a minimum of 5 items & receive 15% off your next purchase. All brands in clean, dry condition accepted. Visit or call store for more details. I:CO partner - https://www.ico-spirit.com/en/",40.73419,-73.87103,GUESS Accessories
333 First Ave,Manhattan,"Clothing, Shoes, Accessories, Coats",40.734749,-73.980443,Cauz For Pawz
1383 Jefferson Ave,Brooklyn,"clothing, shoes, coats, accessories, bedding, towels, other",40.69481,-73.91016,HELPSY
6201 Broadway,Bronx,"Clothing, Shoes, Accessories, Bedding and linens, Towels, Coats",40.895995,-73.897011,Helpsy
2359 Jerome Ave,Bronx,"Clothing, Shoes, Accessories, Coats, Bedding And Linens, Rugs",40.86031,-73.903077,The Salvation Army Of Greater New York
3056 Avenue X,Brooklyn,"Clothing, Shoes, Accessories, Bedding and linens, Towels, Coats",40.594249,-73.935457,Helpsy
159 Monitor St,Brooklyn,"Clothing, Shoes, Accessories, Bedding and linens, Towels, Coats",40.72462,-73.94225,Green Tree Textiles at McGolrick Park's Down to Earth Farmer's Market
2049 Bartow Ave,Bronx,"Clothing, Shoes, Accessories, Bedding and linens, Towels, Coats",40.870454,-73.829111,County Recycling LLC
167 Chester St,Brooklyn,"Clothing, Shoes",40.66771,-73.910938,Usagain LLC
345 West 14th Street,New York,"Clothing & shoes. All brands in clean, dry condition accepted. Visit or call store for more details. I:CO partner - https://www.ico-spirit.com/en/",40.7408927,-74.004446,Columbia Sportswear
2340 Cambreleng Ave,Bronx,"Clothing, Shoes, Accessories, Bedding and linens, Towels, Coats",40.853639,-73.885104,Helpsy
1501 Morris Ave,Bronx,"Clothing, Shoes, Coats, Accessories, Bedding And Linens, Towels, Rugs",40.841085,-73.909812,Goodwill Agents International Inc
874 Myrtle Ave,Brooklyn,"Clothing, Shoes, Coats",40.695399,-73.947095,St. Stephen Outreach Community Development Corporation
230 W 230 St,Bronx,"Clothing, Shoes",40.878941,-73.909531,Usagain LLC
2475 Boston Rd,Bronx,"Clothing, Shoes, Accessories, Bedding and linens, Towels, Coats",40.86299,-73.866234,Helpsy
666 5 Ave,Manhattan,Contact store for details,40.7496531,-73.986585,Zara
402 3 Ave,Manhattan,"Clothing, Shoes, Coats, Accessories",40.742386,-73.98083,Unique Boutique Thrift Shop
460 W 41 St,Manhattan,"Clothing, Shoes, Coats",40.758446,-73.995996,Covenant House New York
79-18 Eliot Ave,Queens,"Towels, Bedding",40.724774,-73.8794,Forest Hills Cat Hospital
2532-54 86 St,Brooklyn,"Clothing, Shoes, Coats, Towels",40.597086,-73.986355,Carecycle Inc
112 Fourth Ave,Manhattan,"Clothing, Shoes, Accessories, Coats, Bedding And Linens, Rugs",40.73259,-73.990464,The Salvation Army Of Greater New York
2300 Randall Ave,Bronx,"Clothing, Shoes, Accessories, Bedding and linens, Towels, Coats",40.81901,-73.844387,Helpsy
1450 Atlantic Ave,Brooklyn,"Clothing, Shoes, Accessories, Bedding and linens, Towels, Coats",40.677926,-73.943904,Helpsy
1933 Bath Ave,Brooklyn,"Clothing, Shoes, Accessories",40.602343,-74.002699,Community Recycling LLC
417 Junius St,Brooklyn,"Clothing, Shoes, Accessories, Bedding and linens, Towels, Coats",40.664529,-73.90126,Helpsy
7107 New Utrecht Ave8,Brooklyn,"Clothing, Shoes, Accessories, Bedding and linens, Towels, Coats",40.618629,-73.998828,Helpsy
333 E 149th St,Bronx,"Clothing, Shoes, Coats",40.816963,-73.920218,Cardinal McCloskey Sunrise Drop in Center
13 Clarke Ave,Staten Island,"Clothing, Shoes, Coats, Accessories, Bedding, Towels, Other",40.564933,-74.131671,American Recycling Technologies Inc.
4882 Arthur Kill Rd,Staten Island,"Clothing, Shoes, Accessories, Bedding and linens, Towels, Coats",40.523132,-74.23911,Helpsy
170-20 140th Ave,Queens,"Clothing, Shoes, Coats",40.670354,-73.770245,Project Hope Charities
193-01 Northern Blvd,Queens,"Clothing, Shoes, Coats, Towels",40.758172,-73.787958,Carecycle Inc
262 NORWAY ave,Staten Island,"Clothing, Shoes, Accessories, Bedding and linens, Towels, Coats",40.59212,-74.07796,USAGAIN LLC
123 W 115 St,Manhattan,"Clothing, Shoes, Coats",40.802019,-73.951205,"FACES NY, Inc."
133-44 150 St,Queens,"Clothing, Shoes, Accessories, Bedding and linens, Towels, Coats",40.666901,-73.789386,Helpsy
1499 Bruckner Blvd,Bronx,"Clothing, Shoes, Accessories, Bedding and linens, Towels, Coats",40.823883,-73.879372,County Recycling LLC
31-85 Whitestone Expy,Queens,"Clothing, Shoes",40.766918,-73.837419,Usagain LLC
2655 Richmond Ave,Staten Island,"Clothes and home textiles from any brand, in clean and dry condition. Bring in your items and receive 15% off your next purchase. Visit or call store for more details. I:CO partner - https://www.ico-spirit.com/en/.",40.5811844,-74.164797,H&M
647 FULTON St,Brooklyn,"Clothing, Shoes, Accessories, Bedding and linens, Towels, Coats",40.68884,-73.97905,USAGAIN LLC
205-33 Hollis Ave,Queens,"Clothing, Shoes, Accessories, Bedding and linens, Towels, Coats",40.707474,-73.751624,Helpsy
980 E 233 St,Bronx,"Clothing, Shoes, Accessories, Bedding and linens, Towels, Coats",40.890431,-73.84912,Usagain LLC
75-41 Yellowstone Blvd,Queens,"Clothing, Shoes, Accessories, Bedding and linens, Towels, Coats",40.714003,-73.858929,Helpsy
South Side of Bell Blvd and Horace Harding Expy,Queens,"clothing, shoes, coats",40.74728,-73.76155,H&M Leasing Corp
710 Coney Island Ave,Brooklyn,"Clothing, Shoes, Accessories, Bedding and linens, Towels, Coats",40.640321,-73.969366,Helpsy
137-10 Farmers Blvd,Queens,"Clothing, Shoes, Accessories, Bedding and linens, Towels, Coats",40.673204,-73.764327,Helpsy
8412 Flatlands Ave,Brooklyn,"Clothing, Shoes, Accessories, Bedding and linens, Towels, Coats",40.637428,-73.909785,Helpsy
1530 Jefferson Ave,Brooklyn,"clothing, shoes, coats, accessories, bedding, towels, other",40.69738,-73.90728,HELPSY
546 Howard Ave,Brooklyn,"Clothing, Shoes, Accessories",40.668997,-73.920333,Community Recycling LLC
584 Gates Ave,Brooklyn,"Clothing, Shoes",40.686996,-73.941929,Usagain LLC
611 Grand Concourse,Bronx,"Clothing, Shoes, Accessories, Bedding and linens, Towels, Coats",40.820455,-73.926739,Helpsy
37 Greenpoint Ave,Brooklyn,"Clothing, Shoes, Coats, Accessories",40.729858,-73.95914,Monk Vintage
536 W 46 St,Manhattan,"Clothing, Shoes, Accessories, Coats, Bedding And Linens, Rugs",40.762645,-73.995399,The Salvation Army Of Greater New York
537 Broadway,New York,"Clothing & shoes. Bring in a minimum of 5 items & receive 15% off your next purchase. All brands in clean, dry condition accepted. Visit or call store for more details. I:CO partner - https://www.ico-spirit.com/en/",40.723429,-73.998804,GUESS
202-14 Hollis Ave,Queens,"Clothing, Shoes, Bedding And Linens, Coats, Accessories, Rugs, Towels",40.706234,-73.754981,V.E.T.S. Inc
1900 Bath Ave,Brooklyn,"Clothing, Shoes, Accessories",40.602419,-74.003915,Community Recycling LLC
75 Broad St,Manhattan,"Clothing, Shoes, Bedding And Linens, Coats, Accessories",40.704617,-74.011232,Urban Resource Institute
4027 White Plains Rd,Bronx,"Clothing, Shoes, Accessories, Bedding and linens, Towels, Coats",40.889431,-73.859871,Helpsy
190-20 Hillside Ave,Queens,"Clothing, Shoes, Accessories, Bedding and linens, Towels, Coats, Other",40.715606,-73.771501,Friendship Circle
521 West Ave,Brooklyn,"Clothing, Shoes",40.582703,-73.972307,Usagain LLC
1243 E Tremont Ave,Bronx,"Clothing, Shoes, Accessories, Bedding and linens, Towels, Coats",40.840024,-73.871437,Helpsy
80 Burgher Ave,Staten Island,"Clothing, Shoes, Accessories",40.593936,-74.094964,Community Recycling LLC
2110 Richmond Rd,Staten Island,"Clothing, Shoes",40.581437,-74.111287,Usagain LLC
91 Claremont,Manhattan,"Clothing, Shoes, Coats",40.811849,-73.963161,Riverside Church Food Pantry
820 E 180 St,Bronx,"Clothing, Shoes",40.845834,-73.884895,Usagain LLC
118-01 14th Ave,Queens,"Clothing, Shoes, Coats",40.786091,-73.849368,First Reformed Church of College Point
5901 Bay Pkwy,Brooklyn,"Clothing, Shoes, Coats, Towels",40.616909,-73.977723,Carecycle Inc
1915 Bruckner Blvd,Bronx,"Clothing, Shoes, Accessories, Bedding and linens, Towels, Coats",40.826602,-73.859073,Helpsy
38 Green st,Manhattan,"Clothing, Shoes, Purses, Gloves, Scarves, Hats, belts, Towels, Curtains, Bedding and Linens. Clean Rags and Torn Clothing",40.72177,-74.00188,Fjllrven Knken
2525 3 Ave,Bronx,"Clothing, Shoes, Accessories, Bedding and linens, Towels, Coats",40.810855,-73.927968,County Recycling LLC
22 Quincy St,Brooklyn,"Clothing, Shoes, Accessories, Coats, Bedding And Linens, Rugs",40.685587,-73.960688,The Salvation Army Of Greater New York
1348 E Gunhill Rd,Bronx,"Clothing, Shoes",40.870542,-73.846406,Usagain LLC
352-358 Classon Ave,Brooklyn,"Clothing, Shoes, Coats",40.688323,-73.960091,Child Development Support Corporation
63-02 Fresh Pond Rd,Queens,"Clothing, Shoes, Coats",40.711694,-73.900319,H&M Leasing Corp
414 W 14 St,Manhattan,Denim only.,40.741184,-74.006555,Levi Strauss
838 Bay St,Staten Island,"Clothing, Shoes, Accessories, Bedding and linens, Towels, Coats",40.621843,-74.072352,Helpsy
13-15 Beach Channel Dr,Queens,"Clothing, Shoes, Accessories, Bedding and linens, Towels, Coats",40.605752,-73.755186,Helpsy
30-05 Whitestone Expy,Queens,"Clothing, Shoes, Coats, Accessories, Bedding, Towels, Other",40.770271,-73.833544,American Recycling Technologies Inc.
148-15 Archer Ave,Queens,"Clothing, Shoes, Accessories, Coats, Bedding And Linens, Rugs",40.701316,-73.805559,The Salvation Army Of Greater New York
195 Linden St,Brooklyn,"Clothing, Shoes, Coats",40.695649,-73.917657,Hope Gardens Multi-Service Senior Center
43-20 Bell Blvd,Queens,"Clothing, Shoes, Coats, Towels",40.760716,-73.769987,Carecycle Inc
3200 Tilden Ave,Brooklyn,"Clothing, Shoes, Accessories",40.646962,-73.94724,Community Recycling LLC
2519 86 St,Brooklyn,"Clothing, Shoes, Accessories, Bedding and linens, Towels, Coats",40.59764,-73.98637,USAGAIN LLC
164 4 Ave,Brooklyn,"Clothing, Shoes, Accessories, Bedding and linens, Towels, Coats",40.679113,-73.982365,Helpsy
1441 Richmond Ave,Staten Island,"Clothing, Shoes, Coats, Towels",40.611422,-74.156793,Carecycle Inc
4102 Ave H,Brooklyn,"Clothing, Shoes, Accessories",40.632195,-73.936665,Community Recycling LLC
586 Coney Island Ave,Brooklyn,"Clothing, Shoes",40.642881,-73.970239,Planet Aid
45 W 34 St,Manhattan,Denim only.,40.74974,-73.9869,Levi Strauss
8913 Ditmas Ave,Brooklyn,"Clothing, Shoes",40.648081,-73.915338,Usagain LLC
493 Mosel Ave,Staten Island,"Clothing, Shoes, Accessories, Coats, Bedding And Linens, Rugs",40.605268,-74.083664,The Salvation Army Of Greater New York
504 Driggs Ave,Brooklyn,Contact store for details,40.718334,-73.95528,Buffalo Exchange
88-01 Queens Boulevard,Queens,Shoes,40.7355095,-73.874613,DSW
529 Empire Blvd,Brooklyn,"Clothing, Shoes, Accessories, Bedding And Linens, Towels , Coats",40.664391,-73.944469,American Recycling Resources
445 E 171st St,Bronx,"Clothing, Shoes, Coats, Accessories, Towels, Bedding",40.838125,-73.903982,Strong Families Deliverance Ministries Inc.
216-03 Merrick Blvd,Queens,"Clothing, Shoes, Coats",40.680299,-73.752451,H&M Leasing Corp
2918 Boston Rd,Bronx,"Clothing, Shoes, Accessories, Bedding and linens, Towels, Coats",40.867963,-73.858745,County Recycling LLC
784 Jamaica Ave,Brooklyn,"Clothing, Shoes, Accessories, Bedding and linens, Towels, Coats",40.688303,-73.875843,Helpsy
167 Olympia Blvd,Staten Island,"Clothing, Shoes, Coats",40.59183,-74.074142,H&M Leasing Corp
5824 Church Ave,Brooklyn,"Clothing, Shoes, Accessories, Bedding and linens, Towels, Coats",40.6523,-73.922296,Helpsy
48-15 31 Ave,Queens,"Clothing, Shoes, Accessories, Bedding and linens, Towels, Coats",40.758221,-73.909977,Helpsy
265-15 Hillside Ave,Queens,"Clothing, Shoes, Coats",40.738614,-73.703261,H&M Leasing Corp
1460 Broadway,Manhattan,"Clothing, Shoes, Coats, Accessories",40.755131,-73.986186,NYC Fair Trade Coalition
951 Leggett Ave,Bronx,"Clothing, Shoes",40.815436,-73.90013,Usagain LLC
195-20 99 Ave,Queens,"Clothing, Shoes, Accessories, Bedding and linens, Towels, Coats",40.710448,-73.763474,Helpsy
3559 White Plains Rd,Bronx,"Clothing, Shoes, Accessories, Bedding and linens, Towels, Coats",40.879263,-73.865903,Helpsy
1293 Broadway,Manhattan,"Clothes and home textiles from any brand, in clean and dry condition. Bring in your items and receive 15% off your next purchase. Visit or call store for more details. I:CO partner - https://www.ico-spirit.com/en/.",40.7498024,-73.988298,H&M
10-07 41 Ave,Queens,"clothing, shoes",40.75342,-73.94134,USAGAIN LLC
551 Evergreen Ave,Brooklyn,"Clothing, Shoes",40.689915,-73.914419,Usagain LLC
32 Sands St,Staten Island,"Clothing, Shoes, Bedding And Linens, Coats, Accessories",40.629168,-74.075618,"United Church of Praise International Ministries, Inc"
137-42 Guy R Brewer Blvd,Queens,"Clothing, Shoes, Accessories, Bedding and linens, Towels, Coats",40.670926,-73.774124,Helpsy
2134 Bartow Ave.,Bronx,Shoes,40.8678282,-73.826991,DSW
2985 Jerome Ave,Bronx,"Clothing, Shoes, Accessories, Bedding and linens, Towels, Coats",40.873796,-73.889441,Helpsy
72 Greene St,Manhattan,Contact store for details,40.723219,-74.0006,Patagonia
1838 Park Place,Brooklyn,"Clothing, Shoes, Coats",40.67143,-73.916435,New Hope Pentecostal Church of Jesus Christ
206-24 Hillside Ave,Queens,"Clothing, Shoes, Accessories, Bedding and linens, Towels, Coats",40.72129,-73.75868,Reliable Clothes Recycling
216 Columbus Ave,Manhattan,"Clothing, Shoes, Purses, Gloves, Scarves, Hats, belts, Towels, Curtains, Bedding and Linens. Clean Rags and Torn Clothing",40.77606,-73.98003,Athleta
2114 Mermaid Ave,Brooklyn,"Clothing, Shoes, Coats",40.575991,-73.988398,Coney Island Lighthouse Mission
137-20 Cross Bay Blvd,Queens,"Clothing, Shoes",40.671124,-73.843331,Usagain LLC
3936 10 Ave,Manhattan,"Clothing, Shoes, Coats",40.866193,-73.918,H&M Leasing Corp
37-21 Rockaway Beach Blvd,Queens,"Clothing, Shoes, Accessories, Bedding and linens, Towels, Coats",40.594506,-73.770148,Helpsy
4352 Bronx Blvd,Bronx,"Clothing, Shoes",40.898179,-73.858469,Usagain LLC
105-20 101st Ave,Queens,"Clothing, Shoes, Coats",40.68647,-73.837291,The Shakti Mission
25-03 Parsons Blvd,Queens,"Clothing, Shoes, Accessories",40.77637,-73.823839,Community Recycling LLC
3872 3 Ave,Bronx,"Clothing, Shoes",40.839182,-73.90002,Usagain LLC
717 RICHMOND RD,Staten Island,"Clothing, Shoes, Accessories, Bedding and linens, Towels, Coats",40.6096987,-74.0902489,USAGAIN LLC
1496 Commonwealth Ave,Bronx,"Clothing, Shoes, Coats, Accessories, Beddings And Linens, Towels, Rugs",40.837886,-73.869116,St. Anthony's Church
1500 Paerdegat Ave N,Brooklyn,"Clothing, Shoes",40.626791,-73.902822,Planet Aid
314 East 9Th St,Manhattan,Contact store for details,40.728718,-73.986625,Eileen Fisher
23 Howard St.,Manhattan,"Gently worn clothing and household linens of all kinds, including shoes, belts, and bags. Contact the store for more details.",40.719324,-74.000556,Reformation
85-12 101 St,Queens,"Clothing, Shoes, Coats, Accessories, Bedding And Linens, Towels, Rugs",40.696807,-73.84768,Crossover Baptist Church Community Outreach Help Center
5702 Ave U,Brooklyn,"Clothing, Shoes, Coats, Accessories, Bedding, Towels, Other",40.613524,-73.917118,American Recycling Technologies Inc.
1886 Nostrand Ave1Fl,Brooklyn,"Clothing, Shoes, Coats",40.639486,-73.948795,"Life of Hope, Inc."
1513 Forest Ave,Staten Island,"Clothing, Shoes, Coats, Accessories, Bedding, Towels, Other",40.624386,-74.139615,American Recycling Technologies Inc.
120 N 4 St,Brooklyn,Denim only.,40.716668,-73.960709,Levi Strauss
407 E 152 St,Bronx,"Clothing, Shoes",40.818323,-73.916234,Usagain LLC
233-20 Hillside Ave,Queens,"Clothing, Shoes, Accessories, Bedding and linens, Towels, Coats",40.733252,-73.736253,Friendship Circle
1240 East Tremont Ave,Bronx,"Clothing, Shoes",40.839402,-73.871907,Usagain LLC
86-02 Northern Blvd,Queens,"Clothing, Shoes, Accessories, Bedding and linens, Towels, Coats",40.755767,-73.881314,Helpsy
611 Williams Ave,Brooklyn,"Clothing, Shoes, Accessories, Bedding and linens, Towels, Coats",40.660759,-73.896644,Helpsy
750 Lexington Ave,Manhattan,"They accept any kind of clothing, fabrics, household linens, footwear, accessories, and jewelry.",40.7537596,-73.981035,Zara
4180 Hylan Blvd,Staten Island,"Clothing, Shoes, Coats, Accessories, Bedding, Towels, Other",40.537703,-74.149526,American Recycling Technologies Inc.
360 Schermerhorn St,Brooklyn,Clothing,40.686529,-73.980347,Recovery House of Worship
8923 5 Ave,Brooklyn,"Clothing, Shoes, Accessories, Bedding and linens, Towels, Coats",40.619116,-74.02778,Helpsy
10 Cebra Ave,Staten Island,"Clothing, Shoes",40.634122,-74.086477,Planet Aid
1041 Bergen St,Brooklyn,"Clothing, Shoes, Bedding And Linens, Towels, Coats",40.676333,-73.951913,Anchor House: Men's Facility
85-15 Grand Ave,Queens,"Clothing, Shoes",40.735797,-73.881806,Usagain LLC
144-29 Northern Blvd,Queens,"Clothing, Shoes, Coats, Towels",40.765019,-73.82247,Carecycle Inc
183-14 Hillside Ave,Queens,"Clothing, Shoes, Accessories, Bedding and linens, Towels, Coats",40.713559,-73.778132,Helpsy
133 Thomas S Boyland St,Brooklyn,"Clothing, Shoes, Coats",40.680364,-73.913659,St Paul Pentecostal Church
333 E 115th St,Manhattan,"Clothing, Shoes, Coats, Accessories",40.795871,-73.936627,The Sharing Place Thrift Store
30 Rockefeller Plaza,Manhattan,Contact store for details,40.75912,-73.979,J. Crew
650 Fountain Ave,Brooklyn,"Clothing, Shoes, Accessories, Bedding and linens, Towels, Coats",40.664501,-73.870759,Helpsy
250 Jackson Ave,Bronx,"Clothing, Shoes, Accessories, Bedding and linens, Towels, Coats",40.804988,-73.912376,Helpsy
1809 Utica Ave,Brooklyn,"Clothing, Shoes, Accessories, Bedding and linens, Towels, Coats",40.62799,-73.927472,Helpsy
3360 Atlantic Ave,Brooklyn,"Clothing, Shoes, Accessories",40.68117,-73.872239,Community Recycling LLC
5801 6 Ave,Brooklyn,"Clothing, Shoes",40.639052,-74.012638,Usagain LLC
3031 Webster Ave,Bronx,"Clothing, Shoes, Coats",40.869905,-73.87955,"Christ Disciples international Ministries, Inc"
31-02 Astoria Blvd,Queens,"Clothing, Shoes",40.769781,-73.918143,Usagain LLC
2271 3rd Ave,Manhattan,"Clothing, Shoes, Coats, Accessories, Towels, Bedding",40.802616,-73.93636,Exodus Transitional Community
2085 Rockaway Pkwy,Brooklyn,"Clothing, Shoes, Coats",40.63293,-73.886906,Bay View Houses Resident Association
835 Broadway,Brooklyn,"Clothing, Shoes, Accessories, Bedding and linens, Towels, Coats",40.699312,-73.938898,Helpsy
196 Schaefer St,Brooklyn,"clothing, shoes, coats, accessories, bedding, towels, other",40.68978,-73.90734,HELPSY
3482 Park Ave,Bronx,"Clothing, Shoes, Coats",40.830858,-73.908104,Bethel House Of Yahweh
307 St Marks Pl,Staten Island,"Clothing, Shoes, Coats, Accessories",40.64262,-74.078038,Sky Light Center
589 E New York Ave,Brooklyn,"Clothing, Shoes, Accessories, Bedding And Linens, Towels , Coats",40.662271,-73.943192,American Recycling Resources
39-11 61st St,Queens,"Clothing, Shoes, Accessories, Coats, Bedding And Linens, Rugs",40.746743,-73.902695,The Salvation Army Of Greater New York
333 Hart St,Brooklyn,"Clothing, Shoes, Coats, Accessories",40.694846,-73.936369,St. John's the Baptist (Catholic Charities)
143-17 Springfield Blvd,Queens,"Clothing, Shoes, Bedding And Linens, Coats, Accessories, Rugs, Towels",40.668106,-73.756611,V.E.T.S. Inc
1148 West Farms Rd,Bronx,"Clothing, Shoes",40.827449,-73.889088,Usagain LLC
84-12 164 St,Queens,"Clothing, Shoes",40.713765,-73.802315,Usagain LLC
3151 Westchester Ave,Bronx,"Clothing, Shoes, Accessories, Bedding And Linens, Towels , Coats",40.850317,-73.830603,American Recycling Resources
1402 8 Ave,Brooklyn,"Clothing, Shoes, Coats",40.662906,-73.982941,Park Slope Women's Shelter (CAMBA)
1609 Victory Blvd,Staten Island,"Clothing, Shoes, Coats",40.613689,-74.117229,H&M Leasing Corp
762 Sheffield Ave,Brooklyn,"Clothing, Shoes, Accessories, Bedding and linens, Towels, Coats",40.658381,-73.892027,Helpsy
127 W 127th St,Manhattan,Clothing,40.809867,-73.94594,Northern Manhattan Perinatal Partnership
3533 Boston Rd,Bronx,"Clothing, Shoes",40.877946,-73.84526,Usagain LLC
1660 E New York Ave,Brooklyn,"Clothing, Shoes, Coats, Accessories",40.673844,-73.906641,tallomfoundation.org
2655 Richmond Ave,Staten Island,The nonprofit Free the Girls accepts gently-used bras at this store location.,40.5823979,-74.165886,Adore Me
245-34 Horace Harding Expy,Queens,"Clothing, Shoes, Coats",40.75973,-73.732914,H&M Leasing Corp
168-21 Union Tpke,Queens,"Clothing, Shoes",40.722305,-73.799599,Usagain LLC
2220 Broadway,Manhattan,Shoes,40.783981,-73.979561,DSW
111 East 12 St,Manhattan,"Clothing, Shoes, Accessories",40.732622,-73.989258,Cure Thrift Shop
337 5 Ave,Brooklyn,"Clothing, Shoes, Accessories, Bedding and linens, Towels, Coats",40.672184,-73.98352,Green Tree Textiles at Park Slope's Down to Earth Farmer's Market
239 W 49 St,Manhattan,"Clothing, Shoes, Accessories, Coats, Bedding And Linens, Towels",40.761475,-73.985747,Encore Community Services
730 East Fordham Rd,Bronx,"Clothing, Shoes, Accessories, Bedding and linens, Towels, Coats",40.856941,-73.88164,Helpsy
104 Fifth Ave,Manhattan,The nonprofit Free the Girls accepts gently-used bras at this store location.,40.7371344,-73.993052,Rigby & Peller - New York Fifth @16th
3305 E Tremont Ave,Bronx,"Clothing, Shoes, Accessories, Bedding and linens, Towels, Coats",40.835172,-73.830948,Helpsy
122-05 Merrick Blvd,Queens,"Clothing, Shoes, Accessories, Bedding and linens, Towels, Coats",40.683736,-73.769206,Helpsy
110-25 Guy R. Brewer Blvd,Queens,"Clothing, Shoes, Coats",40.692739,-73.788107,Bethel Gospel Tabernacle Church
112-10 Beach Channel Dr,Queens,"Clothing, Shoes, Accessories, Bedding and linens, Towels, Coats",40.582987,-73.835201,Helpsy
2311 21 St,Queens,"Clothing, Shoes",40.778193,-73.919112,Usagain LLC
1086 Brooklyn Ave,Brooklyn,"Clothing, Shoes",40.647319,-73.943789,Usagain LLC
14 E 17th St,Manhattan,The nonprofit Free the Girls accepts gently-used bras at this store location.,40.7373736,-73.991481,Journelle (Union Square)
10 Columbus Circle,Manhattan,Contact store for details,40.768553,-73.983187,Eileen Fisher
1578 E 233 St,Bronx,"Clothing, Shoes",40.888909,-73.829914,Usagain LLC
32 Jamaica Ave,Brooklyn,"Clothing, Shoes, Accessories, Bedding and linens, Towels, Coats",40.677238,-73.898665,Helpsy
514 Broadway,Manhattan,"Clothing & shoes. Bring in a minimum of 5 items & receive 15% off your next purchase. All brands in clean, dry condition accepted. Visit or call store for more details. I:CO partner - https://www.ico-spirit.com/en/",40.72249,-73.9989,GUESS by Marciano
149-34 GUY BREWER,Queens,"Clothing, Shoes, Accessories, Bedding and linens, Towels , Coats, Rugs",40.65714,-73.76789,USAGAIN LLC
3612 Nostrand Ave,Brooklyn,"Clothing, Shoes, Accessories, Coats, Bedding And Linens, Rugs",40.595596,-73.94125,The Salvation Army Of Greater New York
69 Gansevoort St,Manhattan,Contact store for details,40.739537,-74.007565,Madewell
253 E Burnside Ave,Bronx,"Clothing, Shoes",40.851961,-73.902414,Usagain LLC
447 Willis Ave,Bronx,"Clothing, Shoes",40.814023,-73.91977,Usagain LLC
498 Columbia St,Brooklyn,"Clothing, Shoes, Accessories, Bedding and linens, Towels, Coats",40.674522,-74.008529,Helpsy
1530 E 222 St,Bronx,"Clothing, Shoes",40.875849,-73.83614,Usagain LLC
153-01 10 Ave,Queens,"Clothing, Shoes, Coats",40.794085,-73.808097,H&M Leasing Corp
150 E 86 St,Manhattan,"Clothes and home textiles from any brand, in clean and dry condition. Bring in your items and receive 15% off your next purchase. Visit or call store for more details. I:CO partner - https://www.ico-spirit.com/en/.",40.7791456,-73.955359,H&M
1348 Southern Blvd,Bronx,"Clothing, Shoes",40.832115,-73.890466,Usagain LLC
2716 Church Ave,Brooklyn,"Clothing, Shoes, Accessories, Bedding and linens, Towels, Coats",40.650446,-73.951917,Helpsy
380 Lexington Ave,Manhattan,"Clothing, Shoes, Bedding And Linens, Coats, Accessories, Rugs, Towels, Fabric",40.751091,-73.976706,"Tropicalfete, Inc."
87-36 Lefferts Blvd,Queens,"Clothing, Shoes, Accessories, Bedding and linens, Towels, Coats",40.698915,-73.830719,Helpsy
1740 Atlantic Ave,Brooklyn,"Clothing, Shoes, Accessories, Bedding and linens, Towels, Coats",40.67715,-73.932744,Usagain LLC
2577 Nostrand Ave,Brooklyn,"Clothing, Shoes, Coats, Towels",40.621317,-73.94558,Carecycle Inc
484 Broadway,Manhattan,Contact store for details,40.721517,-73.999783,J. Crew
50-20 45 St,Queens,"Clothing, Shoes, Coats",40.737333,-73.921332,St. Teresa (Catholic Charities)
240-08 135th Ave,Queens,"Clothing, Shoes, Bedding And Linens, Coats, Accessories, Rugs, Towels",40.671937,-73.734311,V.E.T.S. Inc
2932 Pitkin Ave,Brooklyn,"Clothing, Shoes, Accessories, Bedding and linens, Towels, Coats",40.676253,-73.863669,Helpsy
365 Broadway,Brooklyn,"Clothing, Shoes, Coats",40.707669,-73.955204,Worker's Justice Project
15 Warren St,Manhattan,"Clothing, Shoes, Bedding",40.713786,-74.007634,Little Essentials
63-51 Metropolitan Ave,Queens,"Clothing, Shoes, Accessories, Bedding and linens, Towels, Coats",40.712906,-73.897429,Helpsy
98-02 Jamaica Ave,Queens,"Clothing, Shoes, Accessories, Bedding and linens, Towels, Coats",40.694569,-73.847374,Helpsy
2150 Hempstead Turnpike,Queens,"Clothing, Shoes, Coats",40.709525,-73.720574,The New York Race Track Chaplaincy
146-26 Northern Blvd,Queens,"Clothing, Shoes, Accessories, Bedding and linens, Towels, Coats",40.7649053,-73.819628,HELPSY
601 West 114 St,Manhattan,"Clothing, Shoes, Coats",40.807042,-73.965134,Broadway Community at Broadway Presbyterian Church
2904 Atlantic Ave,Brooklyn,"clothing, shoes, coats, accessories, bedding, towels, other",40.67703,-73.88695,HELPSY
6201-23 4 Ave,Brooklyn,"Clothing, Shoes, Coats, Towels",40.639117,-74.019764,Carecycle Inc
9814 4 Ave,Brooklyn,"Clothing, Shoes, Coats, Accessories, Bedding, Towels, Other",40.613983,-74.032996,American Recycling Technologies Inc.
44-37 Douglaston Pkwy,Queens,"Clothing, Shoes",40.765721,-73.744333,Usagain LLC
955 Manor Rd,Staten Island,"Clothing, Shoes, Coats, Towels",40.603661,-74.120096,Carecycle Inc
2 Prince St,Brooklyn,"Clothing, Shoes",40.697223,-73.982503,Planet Aid
347 E 18 St,Manhattan,"Clothing, Shoes, Coats, Accessories",40.734208,-73.981189,"Moravian Open Door, Inc"
127-20 Rockaway Blvd,Queens,"Clothing, Shoes",40.674912,-73.810201,Usagain LLC
4916 Arthur Kill Rd,Staten Island,"Clothing, Shoes, Coats, Bedding And Linens, Accessories",40.522188,-74.23889,Nothing New Warehouse
3601 Waldo Ave,Bronx,"Clothing, Shoes, Accessories, Bedding and linens, Towels, Coats",40.885936,-73.905767,Helpsy
853 Clarkson Ave,Brooklyn,"Clothing, Shoes",40.65682,-73.929717,Usagain LLC
801 Neill Ave,Bronx,"Clothing, Shoes",40.850956,-73.863822,Usagain LLC
200 Baychester Ave,Bronx,UNIQLO Clothing,40.86402,-73.82755,UNIQLO
1511 86 St,Brooklyn,"Clothing, Shoes, Coats, Towels",40.611554,-74.008663,Carecycle Inc
265 Decatur St,Brooklyn,"Clothing, Shoes, Coats",40.681645,-73.933236,St. Benedict's Food Pantry
146-17 133 Ave,Queens,"Clothing, Shoes, Coats",40.668864,-73.791982,Holy Ghost Upper Room Filling Station Ministry
407 Rockaway Ave,Brooklyn,"Clothing, Shoes, Coats",40.670215,-73.910587,Social Justice Preacher/Crisis Action Center
55 West 15 St,Manhattan,"Clothing, Coats, Shoes, Towels, Bedding",40.737885,-73.995525,Xavier Mission
369 E 169th St,Bronx,"Clothing, Shoes, Coats, Accessories, Towels, Bedding",40.834695,-73.910372,Church Alive/Women of Courage Mission
4332 White Plains Rd,Bronx,"Clothing, Shoes, Accessories, Bedding and linens, Towels, Coats",40.896221,-73.855414,Helpsy
410 City Island Ave,Bronx,"Clothing, Shoes, Accessories, Bedding and linens, Towels, Coats",40.850038,-73.787245,Helpsy
99 Stockholm St,Brooklyn,"Clothing, Shoes, Coats",40.697614,-73.924984,Stockholm Family Shelter
286 3 Ave,Manhattan,"Clothing, Shoes, Coats, Accessories",40.73847,-73.983646,Vintage Thrift Shop Corp
700 E 98th St,Brooklyn,"Clothing, Shoes, Coats",40.65268,-73.90943,God of Mercy Church
158-02 Union Tpke,Queens,"Clothing, Shoes, Coats, Towels",40.71987,-73.80825,Carecycle Inc
475 Atlantic Ave,Brooklyn,"Clothing, Shoes, Coats, Accessories",40.686124,-73.982016,Out of the Closet
165-01 Hillside Ave,Queens,"Clothing, Shoes, Coats, Accessories, Bedding, Towels, Other",40.709488,-73.797476,American Recycling Technologies Inc.
1385 SUTTER AVE,Brooklyn,"Clothing, Shoes, Accessories, Bedding and linens, Towels, Coats",40.6736518,-73.866865,USAGAIN LLC
310 Beach 54 St,Queens,"Clothing, Shoes, Accessories, Bedding and linens, Towels, Coats",40.592809,-73.784166,Helpsy
1133 Ogden Ave,Bronx,"Clothing, Shoes",40.836595,-73.927801,Usagain LLC
1757 Randall Ave,Bronx,"Clothing, Shoes",40.816895,-73.865138,Usagain LLC
1450 Atlantic Avenue,Brooklyn,"Clothing, Shoes, Accessories, Bedding and linens, Towels, Coats",40.67792,-73.9439,HELPSY
388 New Jersey Ave,Brooklyn,"clothing, shoes, coats, accessories, bedding, towels, other",40.67,-73.89457,HELPSY
11 W 25 St,Manhattan,"Clothing, Shoes, Coats, Accessories",40.743484,-73.989626,The Thrifty Hog
41-14 Broadway,Queens,"Clothing, Shoes, Coats, Accessories, Linens",40.758192,-73.91782,Broadway Thrift Shop
8-96 Central Ave,Queens,"Clothing, Shoes, Coats",40.609676,-73.746998,First Presbyterian Russell Sage Memorial Church
3126 Avenue U,Brooklyn,"Clothing, Shoes, Accessories",40.601964,-73.934214,Community Recycling LLC
300 Sound View Ave,Bronx,"Clothing, Shoes, Accessories, Bedding and linens, Towels, Coats",40.811953,-73.856195,County Recycling LLC
23 Bogart St,Brooklyn,Contact store for details,40.704037,-73.9333,beacon's closet
39 Bond St.,Manhattan,"Gently worn clothing and household linens of all kinds, including shoes, belts, and bags. Contact the store for more details.",40.7260279,-73.993333,Reformation
151 Woodruff Ave,Brooklyn,"Clothing, Shoes, Coats",40.65455,-73.961183,Calvary Pentecostal Church
349 E 149 St,Bronx,"Clothing, Shoes, Accessories, Coats",40.816862,-73.919678,"Directions for Our Youth, Inc."
619 W 179th Street,Manhattan,"Clothing, Shoes, Coats, Accessories, Beddings And Linens, Towels",40.848424,-73.935367,International Pentecostal Church
171-11 Linden Blvd,Queens,"Clothing, Shoes",40.692022,-73.778766,Usagain LLC
219-16 Linden Blvd,Queens,"Clothing, Shoes, Accessories, Bedding and linens, Towels, Coats",40.695052,-73.740551,Helpsy
4643 3 Ave,Bronx,"Clothing, Shoes, Accessories, Bedding and linens, Towels, Coats",40.856992,-73.891366,Helpsy
266 Sand Ln,Staten Island,"Clothing, Shoes, Coats",40.593003,-74.068669,H&M Leasing Corp
795 Rockaway Ave,Brooklyn,"Clothing, Shoes, Accessories, Bedding and linens, Towels, Coats",40.660377,-73.908122,Usagain LLC
786 Burke Ave,Bronx,"Clothing, Shoes, Accessories, Bedding and linens, Towels, Coats",40.871032,-73.863678,County Recycling LLC
535 Morgan Ave,Brooklyn,"Clothing, Shoes, Coats, Towels",40.722544,-73.939197,Carecycle Inc
18 Church St,Manhattan,"Clothes and home textiles from any brand, in clean and dry condition. Bring in your items and receive 15% off your next purchase. Visit or call store for more details. I:CO partner - https://www.ico-spirit.com/en/.",40.71039,-74.01173,H&M
1381 Atlantic Ave,Brooklyn,"Clothing, Shoes, Accessories",40.678665,-73.944353,Community Recycling LLC
321 W 110 St,Manhattan,"Clothing, Shoes, Accessories, Bedding and linens, Towels, Coats",40.801218,-73.95926,Green Tree Textiles at Morningside Park's Down to Earth Farmer's Market
840 E 233 St,Bronx,"Clothing, Shoes, Accessories, Bedding and linens, Towels, Coats",40.891647,-73.852635,County Recycling LLC
2456 Richmond Ave,Staten Island,"Clothing, Shoes",40.588705,-74.16886,Planet Aid
200 4 Ave,Brooklyn,"Clothing, Shoes, Coats",40.678317,-73.982852,CHiPS
123-33 83 Ave,Queens,"Clothing, Shoes, Accessories, Bedding and linens, Towels, Coats",40.711441,-73.827266,Usagain LLC
West Side of Bell Blvd and Horace Harding Expy,Queens,"clothing, shoes, coats",40.74777,-73.76189,H&M Leasing Corp
1035 Madison Ave,Manhattan,Contact store for details,40.776439,-73.961828,J. Crew
3301 Laconia Ave,Bronx,"Clothing, Shoes, Coats",40.87318,-73.855744,Emmanuel Seventh Day Church
28-28 College Point Blvd,Queens,"Clothing, Shoes, Accessories, Bedding and linens, Towels, Coats",40.772249,-73.845329,County Recycling LLC
122-20 Merrick Blvd,Queens,"Clothing, Shoes",40.682924,-73.769206,Usagain LLC
3352 Olinville Ave,Bronx,"Clothing, Shoes",40.874607,-73.86791,Usagain LLC
505 5th Avenue,Manhattan,"Clothing & home textiles from any brand, in clean & dry condition. Bring in your items and receive 10% off your next purchase. Visit or call store for more details. I:CO partner - https://www.ico-spirit.com/en/",40.75359,-73.98046,& Other Stories
1755 Coney Island Ave,Brooklyn,"Clothing, Shoes, Accessories",40.614504,-73.962823,Community Recycling LLC
139 Wooster St,Manhattan,Contact store for details,40.725878,-73.999968,The North Face
683 Henderson Ave,Staten Island,"Clothing, Coats, Shoes, Towels, Bedding",40.637401,-74.115219,Pro Youth Recreation and Family Center Inc.
410 West 40Th St,Manhattan,"Clothing, Shoes, Coats",40.757224,-73.99433,"Rauschenbusch Metro Ministries, Inc"
2276 Westchester Ave,Bronx,"Clothing, Shoes, Accessories, Bedding and linens, Towels, Coats",40.834648,-73.84892,County Recycling LLC
3915 Neptune Ave,Brooklyn,"Clothing, Shoes, Coats",40.576531,-74.008549,Housing for Homeless Seniors (Met Council on Jewish Poverty)
147-32 Sanford Ave 2nd Fl,Queens,Clothing,40.759796,-73.815973,The Bridge to Life
90-15 Queens Blvd,Queens,"Clothes and home textiles from any brand, in clean and dry condition. Bring in your items and receive 15% off your next purchase. Visit or call store for more details. I:CO partner - https://www.ico-spirit.com/en/.",40.7345355,-73.870472,H&M
168 AveB,Manhattan,"Clothing, Shoes, Accessories, Coats, Bedding And Linens",40.727263,-73.979858,Church of Good Deeds
1111 Hylan Blvd,Staten Island,"Clothing, Shoes",40.598829,-74.079718,Planet Aid
2485 Richmond Avenue,Staten Island,Shoes,40.5870372,-74.166918,DSW
108-46 Merrick Blvd,Queens,"Clothing, Shoes, Accessories, Bedding and linens, Towels, Coats",40.697439,-73.785428,Helpsy
691 Co-Op City Blvd,Bronx,"Clothing, Shoes, Accessories, Bedding and linens, Towels, Coats",40.880725,-73.825181,County Recycling LLC
109-60 202nd St,Queens,"Clothing, Shoes, Coats",40.706181,-73.755664,Blanche Community Progress Day Care Center
2038 Davidson Ave,Bronx,"Clothing, Shoes, Coats",40.853564,-73.908472,"The Davidson Community Center, Inc."
19502 Sagamore Ave,Queens,"Clothing, Shoes",40.7109,-73.76505,Usagain LLC
29-16 Ditmars Blvd,Queens,Contact store for details,40.776345,-73.91148,Buffalo Exchange
6423 Ft Hamilton Pkwy,Brooklyn,"Clothing, Shoes, Coats, Towels",40.630533,-74.00842,Carecycle Inc
2529 86 St,Brooklyn,"Clothing, Shoes, Accessories, Bedding and linens, Towels, Coats",40.597465,-73.986435,Helpsy
442 Throop Ave,Brooklyn,"Clothing, Shoes",40.688799,-73.942388,Usagain LLC
1772 Rockaway Pkwy,Brooklyn,"Clothing, Shoes",40.638037,-73.894893,Usagain LLC
950 Allerton Ave,Bronx,"Clothing, Shoes, Accessories, Bedding and linens, Towels, Coats",40.865137,-73.859022,Helpsy
741 Glenmore Ave,Brooklyn,"Clothing, Shoes, Accessories, Bedding and linens, Towels, Coats",40.675473,-73.882852,Helpsy
1667 Amsterdam Ave,Manhattan,"Clothing, Shoes, Coats, Accessories",40.823538,-73.948635,Queen's Vintage Palace
3705 Church Ave,Brooklyn,"Clothing, Shoes, Accessories, Bedding and linens, Towels, Coats",40.651382,-73.942576,Helpsy
147-36 Brookville Blvd,Queens,"Clothing, Shoes, Accessories, Bedding and linens, Towels, Coats",40.656245,-73.745231,Helpsy
4402 ASTORIA BLVD,Queens,"Clothing, Shoes, Accessories, Bedding and linens, Towels , Coats, Rugs",40.76802,-73.907,USAGAIN LLC
1154 Clarkson Ave,Brooklyn,"Clothing, Shoes, Coats, Towels",40.660729,-73.920332,Carecycle Inc
139 Flatbush Ave,Brooklyn,Shoes,40.684484,-73.977482,DSW
575 8 Ave 16 Fl,Manhattan,"Clothing, Shoes, Bedding And Linens, Coats, Accessories",40.754986,-73.991803,Urban Pathways
615 Jackson Ave,Bronx,"Clothing, Shoes",40.815043,-73.908703,Usagain LLC
3902 Ave U,Brooklyn,"Clothing, Shoes, Accessories, Bedding and linens, Towels, Coats",40.607889,-73.924949,Usagain LLC
195 Court St,Brooklyn,They only accept T-shirts with the exception of any made of spandex. Can receive $5 credit for each tee up to $25.,40.6874205,-73.993194,Marine Layer
315 Wyckoff Ave,Brooklyn,"Clothing, Shoes, Coats, Accessories, Towels, Bedding",40.700193,-73.911756,Coalition for Hispanic Family Services
10 Columbus Circle,Manhattan,Contact store for details,40.768553,-73.983187,Madewell
142-32 Foch Blvd,Queens,"Clothing, Shoes, Coats, Accessories, Bedding, Towels, Other",40.678839,-73.798413,American Recycling Technologies Inc.
1065 Beach Ave,Bronx,"Clothing, Shoes",40.827014,-73.865567,Usagain LLC
47-24 30 Ave,Queens,"Clothing, Shoes, Accessories, Bedding and linens, Towels, Coats",40.760837,-73.908787,Helpsy
928 E 215 St,Bronx,"Clothing, Shoes",40.878511,-73.85764,Usagain LLC
6571 Broadway,Bronx,"Clothing, Shoes, Accessories, Bedding and linens, Towels, Coats",40.907731,-73.896931,Helpsy
900 Nostrand Ave,Brooklyn,"Clothing, Shoes, Accessories",40.667323,-73.950884,Community Recycling LLC
121-02 Irwin Pl,Queens,"Clothing, Shoes, Accessories, Bedding and linens, Towels, Coats",40.684195,-73.769464,Helpsy
207 Ralph Ave,Brooklyn,"Clothing, Coats, Shoes, Towels, Bedding",40.682516,-73.92241,Unity Faith Outreach
2113 1st Ave,Manhattan,"Clothing, Shoes, Accessories, Bedding and linens, Towels, Coats",40.791419,-73.93905,Green Tree Textiles at East River Harvest Home Farmer's Market
1826 E Chester Rd,Bronx,"Clothing, Shoes",40.849812,-73.844595,Planet Aid
1250 Waters Pl,Bronx,"Clothing, Shoes, Accessories, Bedding and linens, Towels, Coats",40.853043,-73.838874,Helpsy
1745 Forest Ave,Staten Island,"Clothing, Shoes",40.625225,-74.147003,Usagain LLC
113-45 Farmers Blvd,Queens,"Clothing, Shoes",40.698208,-73.762073,Usagain LLC
395 West Broadway,Manhattan,Contact store for details,40.724134,-74.001895,Eileen Fisher
1890 Flatbush Ave,Brooklyn,"Clothing, Shoes, Accessories, Bedding and linens, Towels, Coats",40.623508,-73.938141,Helpsy
250 Vesey St,Manhattan,Contact store for details,40.71373,-74.01526,J. Crew
101-05 37 Ave,Queens,"Clothing, Shoes, Accessories, Bedding and linens, Towels, Coats",40.752955,-73.866002,Helpsy
385 Mcdonald Ave,Brooklyn,"Clothing, Shoes, Coats",40.644526,-73.979376,The Kensington (CAMBA)
496 Driggs Ave,Brooklyn,"Clothing, Shoes, Coats, Accessories",40.718529,-73.95524,Monk Vintage
1102 Myrtle Ave,Brooklyn,"Clothing, Shoes, Accessories, Bedding and linens, Towels, Coats",40.696638,-73.936258,Helpsy
975 Nostrand Ave,Brooklyn,"Clothing, Shoes, Accessories",40.664803,-73.950402,Community Recycling LLC
225-01 Merrick Blvd,Queens,"Clothing, Shoes, Accessories, Bedding and linens, Towels, Coats",40.677548,-73.744518,Helpsy
500 Ridgewood Ave,Brooklyn,"Clothing, Shoes, Accessories, Bedding and linens, Towels, Coats",40.685742,-73.870437,Helpsy
2435 Hylan Blvd,Staten Island,"Clothing, Shoes, Accessories",40.572043,-74.108787,Community Recycling LLC
351 E 74 St,Manhattan,"Clothing, Shoes, Coats",40.769518,-73.955499,Urban Outreach Center at Jan Hus Presbyterian Church
2383 2 Ave,Manhattan,"Clothing, Shoes, Bedding And Linens, Coats, Accessories, Rugs, Towels, Fabric",40.794065,-73.927164,Unidos Si Se Puede
227 Bowery,Manhattan,"Clothing, Shoes, Coats",40.721956,-73.992805,Bowery Mission
301 West 125th Street,Manhattan,Shoes,40.8105504,-73.951473,DSW
81-15 164 St,Queens,"Clothing, Shoes, Coats, Accessories, Beddings And Linens, Towels, Rugs",40.720033,-73.803736,Queens Centers For Progress
1150 Utica Ave,Brooklyn,"Clothing, Shoes, Accessories",40.644747,-73.92997,Community Recycling LLC
88-11 Liberty Ave,Queens,"Clothing, Shoes, Accessories, Bedding and linens, Towels, Coats",40.680141,-73.850362,Helpsy
92 5th Ave,Brooklyn,Contact store for details,40.680212,-73.97821,beacon's closet
597 E 16 St,Brooklyn,"Clothing, Shoes, Accessories",40.635643,-73.962207,Community Recycling LLC
1127 Richmond Terrace,Staten Island,"Clothing, Shoes, Accessories, Bedding and linens, Towels, Coats",40.645334,-74.108558,Helpsy
5100 Kings Plaza,Brooklyn,"Clothes and home textiles from any brand, in clean and dry condition. Bring in your items and receive 15% off your next purchase. Visit or call store for more details. I:CO partner - https://www.ico-spirit.com/en/.",40.610045,-73.921285,H&M
153A Johnson Ave,Brooklyn,"Clothing, Shoes, Accessories",40.706609,-73.944246,Trinity Human Service Corporation
91 5 Ave,Manhattan,Contact store for details,40.73757,-73.991956,J. Crew
2 Weirfield St,Brooklyn,"Clothing, Shoes, Coats",40.686139,-73.915773,H&M Leasing Corp
2509 Victory Blvd,Staten Island,"Clothing, Shoes, Coats, Accessories, Bedding, Towels, Other",40.610427,-74.146636,American Recycling Technologies Inc.
1115 Pennsylvania Ave,Brooklyn,"Clothing, Shoes, Accessories",40.653591,-73.886464,Community Recycling LLC
106-38 150Th St,Queens,"Clothing, Shoes, Coats, Bedding And Linens, Accessories",40.694999,-73.801271,Restfull Nights Corporation Inc.
2280 Tillotson Ave,Bronx,"Clothing, Shoes, Accessories, Bedding and linens, Towels, Coats",40.882375,-73.826353,County Recycling LLC
550 Broadway,Manhattan,"Clothing, Shoes, Purses, Gloves, Scarves, Hats, belts, Towels, Curtains, Bedding and Linens. Clean Rags and Torn Clothing",40.72355,-73.99804,Banana Republic
4141 Laconia Ave,Bronx,"Clothing, Shoes, Accessories, Bedding and linens, Towels, Coats",40.888281,-73.847006,County Recycling LLC
1 River Pl 1406,Manhattan,"Clothing, Shoes, Accessories, Coats, Bedding And Linens",40.760992,-74.000229,Church of Good Deeds
547 Chester St,Brooklyn,"Clothing, Shoes, Accessories, Bedding and linens, Towels, Coats",40.658153,-73.908448,Helpsy
1360 Fulton St,Brooklyn,"Clothing, Shoes, Coats",40.679757,-73.946614,CAMBA at Brooklyn Community Pride Center
3350 Atlantic Ave,Brooklyn,"Clothing, Shoes, Accessories",40.681137,-73.872608,Community Recycling LLC
2734 Jerome Ave,Bronx,"Clothing, Shoes",40.868943,-73.895886,Usagain LLC
510 5 Ave,Manhattan,Contact store for details,40.754135,-73.980845,The North Face
123-12 101 Ave,Queens,"Clothing, Shoes",40.690857,-73.82201,Usagain LLC
140 Bay St,Staten Island,"Clothing, Shoes, Accessories, Coats",40.638925,-74.07607,Every Thing Goes Thrift & Vintage Clothing
9612 Seaview Ave,Brooklyn,"Clothing, Shoes",40.633363,-73.889937,Usagain LLC
429 W 127th St,Manhattan,"Clothing, Shoes, Coats",40.813452,-73.954513,African Services Committee
2077 Southern Blvd,Bronx,"Clothing, Shoes",40.845681,-73.885003,Usagain LLC
280 Ralph Ave,Brooklyn,"Clothing, Shoes, Coats",40.67944,-73.922541,Breevort Senior Club
3563 Boston Rd,Bronx,"Clothing, Shoes",40.878459,-73.844572,Usagain LLC
316 Bleecker St.,Manhattan,They only accept T-shirts with the exception of any made of spandex. Can receive $5 credit for each tee up to $25.,40.7329645,-74.004162,Marine Layer
1413 Edward L. Grant Hwy,Bronx,"Clothing, Shoes, Accessories, Bedding and linens, Towels, Coats",40.842158,-73.922885,Helpsy
40 East 14th Street,Manhattan,Shoes,40.7349156,-73.991592,DSW
2115 Pitkin Ave,Brooklyn,"Clothing, Shoes, Accessories, Bedding and linens, Towels, Coats",40.672388,-73.894324,Helpsy
85-10 Northern Blvd,Queens,"Clothing, Shoes, Coats, Towels",40.755638,-73.881904,Carecycle Inc
426 Columbus Ave,Manhattan,Contact store for details,40.783046,-73.975083,Patagonia
760 Castle Hill Ave,Bronx,"Clothing, Shoes, Accessories, Bedding and linens, Towels, Coats",40.822251,-73.848316,County Recycling LLC
4203 Hylan Blvd,Staten Island,"Clothing, Shoes, Accessories",40.537774,-74.150581,Community Recycling LLC
78-08 51 Ave,Queens,"Clothing, Shoes",40.737043,-73.885057,Usagain LLC
169 Victory Blvd,Staten Island,"Clothing, Shoes, Accessories",40.636869,-74.081714,Community Recycling LLC
1430 Broadway,Manhattan,"Clothing, Shoes, Coats",40.753894,-73.98642,Life Adjustment Center
67-20 Main St,Queens,"Clothing, Shoes, Accessories",40.732849,-73.825539,Community Recycling LLC
162-35 N Conduit Ave,Queens,"Clothing, Shoes, Accessories, Bedding and linens, Towels, Coats",40.6682344,-73.772245,HELPSY
497-501 Fulton St,Brooklyn,"Clothes and home textiles from any brand, in clean and dry condition. Bring in your items and receive 15% off your next purchase. Visit or call store for more details. I:CO partner - https://www.ico-spirit.com/en/.",40.69084,-73.98513,H&M
3920 27th St,Queens,"Clothing, Shoes, Coats, Accessories, Towels, Bedding",40.753954,-73.936746,9 Million Reasons
1685 Utica Ave,Brooklyn,"Clothing, Shoes",40.631134,-73.92782,Usagain LLC
211-60 Hillside Ave,Queens,"Clothing, Shoes",40.724434,-73.754131,Usagain LLC
5 FINGERBOARD RD,Staten Island,"Clothing, Shoes, Accessories, Bedding and linens, Towels, Coats",40.609385,-74.0630097,USAGAIN LLC
202 Beach 30 St,Queens,"Clothing, Shoes, Accessories, Bedding and linens, Towels, Coats",40.594966,-73.76255,Helpsy
4521 7 Ave,Brooklyn,"Clothing, Shoes, Accessories, Bedding and linens, Towels, Coats",40.644602,-74.003227,Helpsy
2317 Coney Island Ave,Brooklyn,"Clothing, Shoes, Accessories",40.60036,-73.961032,Community Recycling LLC
111-06 Van Wyck Expy,Queens,"Clothing, Shoes, Accessories, Bedding and linens, Towels, Coats",40.68391,-73.807099,Helpsy
219-03 n CONDUIT Ave,Queens,"Clothing, Shoes, Accessories, Bedding and linens, Towels, Coats",40.66682,-73.75704,USAGAIN LLC
50 Hudson St,Manhattan,Contact store for details,40.717341,-74.008735,J. Crew
1811 Victor St,Bronx,"Clothing, Shoes, Coats, Accessories, Beddings And Linens, Towels",40.84534,-73.867302,"J&S CARING FOOD PANTRY, INC"
125 Kings Hwy,Brooklyn,"Clothing, Shoes, Coats, Accessories, Bedding, Towels, Other",40.606276,-73.986653,American Recycling Technologies Inc.
535 E 170 St,Bronx,"Clothing, Shoes, Accessories, Bedding and linens, Towels, Coats",40.835176,-73.902454,Helpsy
1387 Boston Rd,Bronx,"Clothing, Shoes",40.833344,-73.897448,Usagain LLC
53-04 Corona Ave,Queens,"Clothing, Shoes, Accessories",40.742474,-73.86814,Community Recycling LLC
207-209 East Broadway,Manhattan,"Clothing, Shoes, Coats",40.714012,-73.987725,"Vision Urbana, Inc."
224-04 Braddock Ave,Queens,"Clothing, Shoes",40.727504,-73.732639,Usagain LLC
1579 Forest Ave,Staten Island,"Clothing, Shoes",40.624868,-74.140466,Usagain LLC
234 Wythe Ave,Brooklyn,Contact store for details,40.717748,-73.962754,J. Crew
1806 Decatur St,Queens,"Clothing, Shoes, Accessories, Bedding and linens, Towels, Coats",40.697494,-73.898118,Helpsy
13-61 Beach Channel Dr,Queens,"Clothing, Shoes, Accessories, Bedding and linens, Towels, Coats",40.607027,-73.754911,Helpsy
1090 Bay St,Staten Island,"Clothing, Shoes, Accessories",40.616243,-74.068038,Bay Street Thrift
630 9th Ave,Manhattan,The nonprofit Free the Girls accepts gently-used bras at this store location.,40.759987,-73.991234,Bra*Tenders
1804 Ralph Ave,Brooklyn,"Clothing, Shoes, Accessories, Bedding and linens, Towels, Coats, Rugs",40.633112,-73.919042,Usagain LLC
262-10 Hillside Ave,Queens,"Clothing, Shoes, Accessories, Bedding and linens, Towels, Coats",40.737573,-73.705787,Helpsy
179-02 Union Tpke,Queens,"Clothing, Shoes",40.726486,-73.788865,Usagain LLC
9111 4 Ave,Brooklyn,"Clothing, Shoes, Accessories, Bedding and linens, Towels, Coats",40.618626,-74.029576,Helpsy
597 New Jersey Ave,Brooklyn,"clothing, shoes, coats, accessories, bedding, towels, other",40.66453,-73.89273,HELPSY
187-20 Hillside Ave,Queens,"Clothing, Shoes, Accessories, Bedding and linens, Towels, Coats",40.714738,-73.774451,Friendship Circle
2730 Bruckner Blvd,Bronx,"Clothing, Shoes, Coats",40.829681,-73.833052,Throggs Neck Community Church
115 5 Ave,Manhattan,Contact store for details,40.7389032,-73.991223,Madewell
2552 Linden Blvd,Brooklyn,"Clothing, Shoes",40.667439,-73.870092,Usagain LLC
3031 Bailey Ave,Bronx,"Clothing, Shoes, Accessories, Bedding and linens, Towels, Coats",40.877364,-73.903488,Helpsy
135-32 38 Ave,Queens,"Clothing, Shoes, Coats",40.760477,-73.831461,La Jornada
1982 Utica Ave,Brooklyn,"Clothing, Shoes, Accessories, Bedding and linens, Towels, Coats",40.62329,-73.927698,Helpsy
140 W 72nd St,Manhattan,Used Athletic Shoes collected on behalf of MORE Foundation.,40.7778115,-73.980397,JackRabbit
265 Nagle Ave,Manhattan,"Clothing, Shoes, Accessories, Bedding and linens, Towels, Coats",40.86306,-73.920248,Helpsy
1656 E 233 St,Bronx,"Clothing, Shoes, Accessories, Bedding and linens, Towels, Coats",40.888128,-73.827823,County Recycling LLC
32-14 31 St,Queens,"Clothing, Shoes, Coats, Towels",40.76155,-73.9261,Carecycle Inc
1339 Dekalb Ave,Brooklyn,"Clothing, Shoes, Accessories, Coats",40.698586,-73.92512,GG's Social Trade & Treasure Club
235 Schaefer St,Brooklyn,"clothing, shoes, coats, accessories, bedding, towels, other",40.69103,-73.90683,HELPSY
717 RICHMOND RD,Staten Island,"Clothing, Shoes, Accessories, Bedding and linens, Towels, Coats",40.6096987,-74.090249,USAGAIN LLC
1280 Allerton Ave,Bronx,"Clothing, Shoes, Accessories, Bedding and linens, Towels, Coats",40.864964,-73.849373,Helpsy
162-10 Highland Ave,Queens,"Clothing, Shoes, Coats",40.709872,-73.800042,First United Methodist Church of Jamaica
1065 E 163 St,Bronx,"Clothing, Shoes",40.821211,-73.890741,Usagain LLC
130-15 14 Ave,Queens,"Clothing, Shoes",40.786132,-73.837737,Usagain LLC
129-19 Guy R Brewer Blvd,Queens,"Clothing, Shoes, Accessories, Bedding and linens, Towels, Coats",40.677381,-73.778207,Helpsy
61-04 Fresh Pond Rd,Queens,"Clothing, Shoes, Accessories, Bedding and linens, Towels, Coats",40.714346,-73.901351,Helpsy
632 Grand Ave,Brooklyn,"Clothing, Shoes, Accessories, Bedding and linens, Towels, Coats",40.676788,-73.963213,Helpsy
475 Castle Hill Ave,Bronx,"Clothing, Shoes, Accessories, Bedding and linens, Towels, Coats",40.816649,-73.847948,County Recycling LLC
314 Mcdonald Ave,Brooklyn,"Clothing, Shoes, Accessories, Bedding and linens, Towels, Coats",40.646293,-73.980386,Helpsy
86-24 Whitney Ave,Queens,"Clothing, Shoes",40.741903,-73.87828,Usagain LLC
9408 3 Ave,Brooklyn,"Clothing, Shoes, Coats, Towels",40.617692,-74.033776,Carecycle Inc
410 W 207 St,Manhattan,"Clothing, Shoes, Accessories, Bedding and linens, Towels, Coats",40.863806,-73.918438,County Recycling LLC
3485 Neptune Ave,Brooklyn,"Clothing, Shoes, Accessories, Bedding and linens, Towels, Coats",40.57741,-74.001826,Helpsy
22 Brienna Court,Staten Island,Clothing,40.538245,-74.240117,Where to Turn
328 Bowery,New York,"Clothing & shoes. Bring in your unwanted items & receive 20% off a new pair of full-price shoes. All brands in clean, dry condition accepted. Visit or call store for more details. I:CO partner - https://www.ico-spirit.com/en/",40.7256243,-73.99253,Kenneth Cole
208 8 Ave,Manhattan,"Clothing, Shoes, Accessories, Coats, Bedding And Linens, Rugs",40.743695,-73.99921,The Salvation Army Of Greater New York
134-15 Rockaway Blvd,Queens,"Clothing, Shoes, Accessories, Bedding and linens, Towels, Coats",40.674717,-73.803526,Helpsy
4353 Broadway,Manhattan,"Clothing, Shoes",40.853519,-73.934332,Usagain LLC
198-15 Horace Harding Expy,Queens,"Clothing, Shoes, Coats, Towels",40.743923,-73.777347,Carecycle Inc
217-20 Linden Blvd,Queens,"Clothing, Shoes, Accessories, Bedding and linens, Towels, Coats",40.695418,-73.741981,Helpsy
200 Arden Ave,Staten Island,"Clothing, Shoes, Coats, Accessories, Bedding, Towels, Other",40.554069,-74.192808,American Recycling Technologies Inc.
910 Richmond Rd,Staten Island,"Clothing, Shoes, Accessories, Coats, Bedding And Linens",40.604574,-74.092306,Christian Pentecostal Church
3455 3 Ave,Bronx,"Clothing, Shoes",40.829788,-73.906782,Usagain LLC
2807 86 St,Brooklyn,"Clothing, Shoes, Accessories, Bedding and linens, Towels, Coats",40.593051,-73.978641,Helpsy
313 Bowery St,Manhattan,Contact store for details,40.725124,-73.991864,Patagonia
1047 Amsterdam Ave,Manhattan,"Clothing, Shoes, Coats",40.803882,-73.961885,Cathedral Community Cares
197-08 Hillside Ave,Queens,"Clothing, Shoes",40.718418,-73.764851,Usagain LLC
218-35 Hempstead Ave,Queens,"Clothing, Shoes, Coats, Towels",40.713987,-73.736984,Carecycle Inc
Bell Blvd and Horace Harding Expy,Queens,"Clothing, Shoes, Coats",40.747234,-73.761404,H&M Leasing Corp
1730 SHORE PARKWAY,Brooklyn,"Clothing, Shoes, Accessories, Bedding and linens, Towels, Coats",40.59355,-73.99746,Green Tree Charity
1764 University Ave,Bronx,"Clothing, Shoes",40.849261,-73.916477,Usagain LLC
1674 3 Ave,Manhattan,"Clothing, Shoes, Coats, Accessories",40.783861,-73.9507,Unique Boutique
137-61 Northern Blvd,Queens,"Clothing, Shoes",40.764061,-73.829195,Usagain LLC
1834 3 Ave,Manhattan,"Clothing, Shoes, Coats, Accessories, Beddings And Linens, Towels, Rugs",40.788706,-73.947072,St. Cecilias Thrift Store
9616 Flatlands Ave,Brooklyn,"Clothing, Shoes, Accessories, Bedding and linens, Towels, Coats",40.643225,-73.900639,Helpsy
1768 St. Johns Place,Brooklyn,"Clothing, Shoes, Coats",40.669599,-73.918488,Other People in Need
1416 Unionport Rd,Bronx,"Clothing, Shoes",40.834958,-73.854354,Usagain LLC
239 Union Ave,Brooklyn,"Clothing, Shoes, Accessories, Bedding and linens, Towels, Coats",40.707663,-73.950769,Helpsy
77-00 Queens Blvd,Queens,"Clothing, Shoes, Accessories",40.738083,-73.886102,Community Recycling LLC
175-35 Hillside Ave,Queens,"Clothing, Shoes",40.712274,-73.786717,Usagain LLC
9400 Ditmars Boulevard,Queens,"Clothing, Coats, Shoes, Towels, Bedding",40.769634,-73.875679,CAMBA
112-15 Beach Channel Dr,Queens,"Clothing, Shoes, Coats",40.58198,-73.835014,H&M Leasing Corp
248-27 UNION Tpke,Queens,"Clothing, Shoes, Accessories, Bedding and linens, Towels , Coats, Rugs",40.74296,-73.72144,USAGAIN LLC
240-06 Braddock Ave,Queens,"Clothing, Shoes",40.726198,-73.728115,Usagain LLC
663 64th St,Brooklyn,"Clothing, Shoes, Coats, Accessories, Towels, Bedding",40.634867,-74.01423,Holding Hands Ministries
333 Seneca Ave,Queens,"Clothing, Shoes, Coats",40.707652,-73.915418,H&M Leasing Corp
163-30 Cross Bay Blvd,Queens,"Clothing, Shoes, Coats, Towels",40.651617,-73.838506,Carecycle Inc
1472 Broadway,Manhattan,"Clothes and home textiles from any brand, in clean and dry condition. Bring in your items and receive 15% off your next purchase. Visit or call store for more details. I:CO partner - https://www.ico-spirit.com/en/.",40.75607,-73.98583,H&M
800 Barretto St,Bronx,"Clothing, Shoes, Coats",40.816852,-73.88952,BronxWorks - The Living Room
231-02 Mentone Ave,Queens,"Clothing, Shoes, Coats",40.666594,-73.745005,Love Covenant Church of God in Christ
40-08 30 Ave,Queens,"Clothing, Shoes",40.763472,-73.914397,Usagain LLC
3123 Atlantic Ave,Brooklyn,"Clothing, Shoes, Accessories, Bedding and linens, Towels, Coats",40.679582,-73.880067,Helpsy
14402 Northern Boulevard,Queens,"Clothing, Shoes, Coats, Accessories",40.764358,-73.82314,Bayside Thrift Shop
2245 Coleman St,Brooklyn,"Clothing, Shoes",40.608082,-73.923301,Planet Aid
1810 Victory Blvd,Staten Island,"Clothing, Shoes",40.612753,-74.123728,Planet Aid
1006 E 151st St,Bronx,"Clothing, Shoes, Coats",40.81411,-73.904083,United Bronx Parents
113-21 Merrick Blvd,Queens,"Clothing, Shoes, Accessories, Bedding and linens, Towels, Coats",40.692074,-73.779133,Helpsy
6424 4 Ave,Brooklyn,"Clothing, Shoes",40.638293,-74.021555,Usagain LLC
487 Columbus Ave,Manhattan,"Clothing, Shoes, Coats, Accessories",40.784694,-73.97311,Unique Boutique Thrift Shop
146 E 98 St,Brooklyn,"Clothing, Shoes, Coats",40.663327,-73.921561,H&M Leasing Corp
2173 Grand Concourse,Bronx,"Clothing, Shoes, Accessories, Bedding and linens, Towels, Coats",40.855307,-73.901773,Helpsy
596 City Island Ave,Bronx,"Clothing, Shoes, Coats, Accessories",40.854477,-73.790536,St Mary Star of the Sea City Island
3095 Avenue U,Brooklyn,"Clothing, Shoes, Accessories, Bedding and linens, Towels, Coats",40.601728,-73.935514,Helpsy
411 East 143 St,Bronx,"Clothing, Shoes, Coats, Accessories, Beddings And Linens, Towels, Rugs",40.812195,-73.919793,"ST. MARY'S DEVELOPMENT CENTER FOR CHILDREN AND FAMILIES, INC."
487 Hudson StLower,Manhattan,"Clothing, Shoes, Accessories",40.732586,-74.006704,St. Luke's Thrift Shop
224 25 St,Brooklyn,"Clothing, Shoes",40.659578,-73.997061,Usagain LLC
1610 Bushwick Ave,Brooklyn,"clothing, shoes, coats, accessories, bedding, towels, other",40.68046,-73.90338,HELPSY
3356 Seymour Ave,Bronx,"Clothing, Shoes",40.875741,-73.848481,Usagain LLC
2244 White Plains Rd,Bronx,"Clothing, Shoes, Accessories, Bedding and linens, Towels, Coats",40.858638,-73.867175,Helpsy
466 10 Ave,Manhattan,"Clothing, Shoes, Accessories, Bedding and linens, Towels, Coats",40.755992,-73.997814,Helpsy
700 Post Rd,Staten Island,"Clothing, Shoes",40.631432,-74.125074,Planet Aid
310 Tiffany St,Bronx,"Clothing, Shoes, Bedding",40.806513,-73.88849,World Vision - Greater New York
22-12 College Point Blvd,Queens,"Clothing, Shoes, Accessories, Bedding and linens, Towels, Coats",40.779711,-73.846386,County Recycling LLC
575 Fifth Avenue,New York,"Clothing & shoes. Bring in a minimum of 5 items & receive 15% off your next purchase. All brands in clean, dry condition accepted. Visit or call store for more details. I:CO partner - https://www.ico-spirit.com/en/",40.7564269,-73.978475,GUESS
130 E 16 St,Manhattan,Fabric,40.734927,-73.987342,Teaching Beyond the Square
1081 Coney Island Ave,Brooklyn,"Clothing, Shoes, Coats, Accessories, Bedding And Linens, Towels",40.63123,-73.966141,Council of Peoples Organization (COPO)
1715 Flatbush Ave,Brooklyn,"Clothing, Shoes, Accessories, Bedding and linens, Towels, Coats",40.62838,-73.942618,Helpsy
538 3 Ave,Brooklyn,"Clothing, Shoes, Accessories, Bedding and linens, Towels, Coats",40.669032,-73.993517,Helpsy
340 Convent Ave,Manhattan,"Clothing, Shoes, Coats",40.824295,-73.946958,Greater Tabernacle Baptist Church
1867 Williamsbridge Rd,Bronx,"Clothing, Shoes",40.851915,-73.852968,Usagain LLC
1190 Castle Hill Ave,Bronx,"Clothing, Shoes",40.831817,-73.850682,Usagain LLC
520 Kingston Ave,Brooklyn,"Clothing, Shoes, Coats, Accessories, Towels, Bedding",40.661039,-73.942803,Horeb SDA Church
3120 Ditmars Blvd,Queens,"Clothing, Shoes, Linens, Accessories",40.775539,-73.91027,Ditmars Thrift Shop
139 Flatbush Ave,Brooklyn,UNIQLO Clothing,40.68451,-73.97681,UNIQLO
7708 New Utrecht,Brooklyn,"Clothing, Shoes, Coats",40.613981,-74.000656,"Reaching Out Community Services, Inc"
2121 5 ave,Manhattan,"Clothing, Shoes, Accessories, Bedding and linens, Towels, Coats",40.80985,-73.93924,USAGAIN LLC
1424 Herkimer St,Brooklyn,"Clothing, Shoes, Coats",40.677014,-73.90629,Magnolia House Women's Shelter (CAMBA)
460 MOTHER GASTON BLVD,Brooklyn,"Clothing, Shoes, Accessories, Bedding and linens, Towels, Coats",40.6679242,-73.906666,USAGAIN LLC
175 Remsen St,Brooklyn,"Clothing, Shoes, Coats",40.693513,-73.991462,EAC Network
4210 Farragut Rd,Brooklyn,"Clothing, Shoes",40.636813,-73.936048,Usagain LLC
10 Columbus Cir,Manhattan,Used Athletic Shoes collected on behalf of MORE Foundation.,40.7689589,-73.982771,JackRabbit
156 Ludlow St.,Manhattan,"Gently worn clothing and household linens of all kinds, including shoes, belts, and bags. Contact the store for more details.",40.7209298,-73.98778,Reformation
2090 BRONXDALE AVE,Bronx,"Clothing, Shoes, Accessories, Bedding and linens, Towels, Coats",40.8521224,-73.868146,USAGAIN LLC
250 E 139 St,Bronx,"Clothing, Shoes, Accessories, Bedding and linens, Towels, Coats",40.811826,-73.927159,County Recycling LLC
149-34 Guy Brewer Blvd,Queens,"Clothing, Shoes",40.657147,-73.767896,Usagain LLC
100 Burgher Ave,Staten Island,"Clothing, Shoes, Accessories",40.593643,-74.094413,Community Recycling LLC
35-20 Francis Lewis Blvd,Queens,"Clothing, Shoes, Accessories, Bedding and linens, Towels, Coats",40.76377,-73.788193,Helpsy
149-20 Rockaway Blvd,Queens,"Clothing, Shoes, Accessories, Bedding and linens, Towels, Coats",40.67285,-73.788644,Helpsy
108-30 Merrick Blvd,Queens,"Clothing, Shoes, Accessories, Bedding and linens, Towels, Coats",40.697241,-73.785798,Helpsy
994 Glenmore Ave,Brooklyn,"Clothing, Shoes, Accessories, Bedding and linens, Towels, Coats",40.676333,-73.873125,Helpsy
151 Lenox Ave,Manhattan,"Clothing, Shoes, Accessories, Bedding and linens, Towels, Coats",40.803165,-73.94923,Green Tree Textiles at Lenox Ave Harvest Home Farmer's Market
2275-2375 Richmond Ave,Staten Island,"Clothing, Shoes, Coats, Towels",40.591141,-74.164246,Carecycle Inc
515 Broadway,Manhattan,"Clothes and home textiles from any brand, in clean and dry condition. Bring in your items and receive 15% off your next purchase. Visit or call store for more details. I:CO partner - https://www.ico-spirit.com/en/.",40.7227308,-73.99937,H&M
300 W Service Rd,Staten Island,"Clothing, Shoes, Coats",40.586164,-74.193957,H&M Leasing Corp
185 Greenwich Street,Manhattan,"Clothing & home textiles from any brand, in clean & dry condition. Bring in your items and receive 10% off your next purchase. Visit or call store for more details. I:CO partner - https://www.ico-spirit.com/en/",40.71177,-74.01101,& Other Stories
200-12 Hollis Ave,Queens,"Clothing, Shoes",40.705886,-73.757195,Second Chance Agape Worship Center
153-01 10 Ave,Queens,"Clothing, Shoes, Coats",40.794085,-73.808097,H&M Leasing Corp
845 East 231st St,Bronx,"Clothing, Shoes, Coats, Accessories, Beddings And Linens, Towels",40.89081,-73.853507,"J&S CARING FOOD PANTRY, INC"
4302 Ft Hamilton Pkwy,Brooklyn,"Clothing, Shoes, Accessories, Bedding and linens, Towels, Coats",40.641199,-73.993999,Helpsy
1144 Madision Ave,Manhattan,Contact store for details,40.780066,-73.959598,Madewell
2232 Pitkin Ave,Brooklyn,"Clothing, Shoes",40.672518,-73.889823,Planet Aid
2066 Rockaway Pkwy,Brooklyn,"Clothing, Shoes, Accessories",40.632464,-73.888871,Community Recycling LLC
438 Ralph Ave,Brooklyn,"Clothing, Shoes, Coats",40.674171,-73.922411,"God's Deliverance Temple, Inc"
1677 Victory Blvd,Staten Island,"Clothing, Shoes, Coats, Towels",40.61344,-74.11995,Carecycle Inc
44-02 Beach Channel Dr,Queens,"Clothing, Shoes, Coats",40.59584,-73.77603,Blanche Community Progress Day Care Center
82-75 Parsons Blvd,Queens,"Clothing, Shoes",40.716442,-73.807673,Usagain LLC
130-10 Metropolitan Ave,Queens,"Clothing, Shoes",40.70311,-73.821827,Usagain LLC
50-15 Roosevelt Ave,Queens,"Clothing, Shoes, Coats, Towels",40.74403,-73.914562,Carecycle Inc
1485 Dumont Ave,Brooklyn,"Clothing, Shoes, Coats",40.671419,-73.862544,Brooklyn United Methodist Church Home
1000 Westchester Ave,Bronx,"Clothing, Shoes, Accessories, Bedding and linens, Towels, Coats",40.82346,-73.893409,Helpsy
47-07 Broadway,Queens,"Clothing, Shoes, Coats, Towels",40.756012,-73.913372,Carecycle Inc
14-01 Central Ave,Queens,"Clothing, Shoes, Accessories, Bedding and linens, Towels, Coats",40.606271,-73.750252,Helpsy
741 Utica Ave,Brooklyn,"Clothing, Shoes",40.654882,-73.930353,Usagain LLC
166 5 Ave,Manhattan,Contact store for details,40.740717,-73.990601,Eileen Fisher
230 Classon Ave Brooklyn,Brooklyn,"Clothing, Shoes, Coats, Accessories",40.692616,-73.961078,St. Mary's Church Clothing Drive
629 Richmond Rd,Staten Island,"Clothing, Shoes",40.611324,-74.088872,Planet Aid
31 W 34th St,Manhattan,UNIQLO Clothing,40.749486,-73.986627,UNIQLO
208 E 23 St,Manhattan,"Clothing, Shoes, Accessories, Coats, Bedding And Linens, Rugs",40.738375,-73.982691,The Salvation Army Of Greater New York
99-30 Corona Ave,Queens,"Clothing, Shoes",40.743818,-73.862225,Usagain LLC
3632 Kingsbridge Ave,Bronx,"Clothing, Shoes",40.884339,-73.901431,Usagain LLC
454 Wyckoff Ave,Brooklyn,"Clothing, Shoes, Accessories, Bedding and linens, Towels, Coats",40.698069,-73.909436,Helpsy
88-01 Parsons Blvd,Queens,"Clothing, Shoes, Accessories, Bedding and linens, Towels, Coats",40.706685,-73.801952,Helpsy
495 E 180 St,Bronx,"Clothing, Shoes, Accessories, Bedding and linens, Towels, Coats",40.851499,-73.894866,Helpsy
74 Guernsey St,Brooklyn,Contact store for details,40.723712,-73.95256,beacon's closet
260 Hamilton Ave,Brooklyn,"Clothing, Shoes",40.677003,-74.002446,Usagain LLC
435 East 238 St,Bronx,"Clothing, Shoes, Coats, Accessories",40.900173,-73.863799,St. Stephen's Thrift Shop
4825 White Plains Rd,Bronx,"Clothing, Shoes, Accessories, Bedding and linens, Towels, Coats",40.906531,-73.849257,Helpsy
87-25 Lefferts Blvd,Queens,"Clothing, Shoes, Accessories, Bedding and linens, Towels, Coats",40.699231,-73.830052,Helpsy
999 Greene Ave,Brooklyn,"Clothing, Shoes, Coats, Accessories",40.69132,-73.927166,Open Door Family Life Center
3236 Fulton St,Brooklyn,"Clothing, Coats, Shoes, Towels, Bedding",40.682388,-73.875689,Highland Park Community Development Corporation
1011 Rogers Ave,Brooklyn,"Clothing, Shoes, Accessories, Bedding and linens, Towels, Coats",40.645523,-73.95155,Helpsy
5100 Kings Plaza,Brooklyn,"Clothing & shoes. Bring in a minimum of 5 items & receive 15% off your next purchase. All brands in clean, dry condition accepted. Visit or call store for more details. I:CO partner - https://www.ico-spirit.com/en/",40.6097326,-73.919653,GUESS
1154 East Gun Hill Rd,Bronx,"Clothing, Shoes",40.872868,-73.853347,Usagain LLC
87-19 Rockaway Blvd,Queens,"Clothing, Shoes, Accessories, Bedding and linens, Towels, Coats",40.682891,-73.852331,Usagain LLC
330 East 56Th St,Manhattan,"Clothing, Shoes, Accessories, Coats, Bedding And Linens",40.757963,-73.964577,Church of Good Deeds
600 Richmond Terrace,Staten Island,"Clothing, Shoes, Coats",40.645438,-74.092023,H&M Leasing Corp
575 Broadway,Manhattan,"Clothing & home textiles from any brand, in clean & dry condition. Bring in your items and receive 10% off your next purchase. Visit or call store for more details. I:CO partner - https://www.ico-spirit.com/en/",40.72451,-73.99785,& Other Stories